city,county,lat,lon,province,staID,staName,type
北京,西城区,39.8784,116.3621,北京,1001A,万寿西宫,B
北京,昌平区,40.2915,116.2202,北京,1002A,定陵(对照点),B
北京,东城区,39.9289,116.4174,北京,1003A,东四,B
北京,东城区,39.8863,116.4072,北京,1004A,天坛,B
北京,朝阳区,39.9365,116.462,北京,1005A,农展馆,B
北京,西城区,39.9295,116.3392,北京,1006A,官园,B
北京,海淀区,39.9611,116.2878,北京,1007A,海淀万柳,B
北京,顺义区,40.135,116.6636,北京,1008A,顺义新城,B
北京,怀柔区,40.3275,116.6275,北京,1009A,怀柔镇,B
北京,昌平区,40.217,116.2296,北京,1010A,昌平镇,B
北京,朝阳区,39.9821,116.3966,北京,1011A,奥体中心,B
北京,石景山区,39.9136,116.184,北京,1012A,古城,B
天津,红桥区,39.1661,117.1444,天津,1015A,勤俭道,B
天津,河东区,39.1082,117.237,天津,1017A,大直沽八号路,B
天津,河西区,39.0927,117.202,天津,1018A,前进道,B
天津,北辰区,39.2133,117.1837,天津,1019A,淮河道,B
天津,东丽区,39.0877,117.307,天津,1021A,跃进路,B
天津,滨海新区,39.0343,117.707,天津,1023A,第四大街,B
天津,滨海新区,38.8394,117.457,天津,1024A,永明路,B
天津,滨海新区,39.1587,117.764,天津,1026A,汉北路,B
天津,静海区,38.9194,117.157,天津,1027A,团泊洼(对照点),B
石家庄,桥西区,38.0444,114.4422,河北,1029A,职工医院,B
石家庄,高新区,38.0266,114.6063,河北,1030A,高新区,B
石家庄,新华区,38.1328,114.4898,河北,1031A,西北水源,B
石家庄,桥西区,38.0058,114.4586,河北,1032A,西南高教,B
石家庄,裕华区,38.0178,114.5331,河北,1033A,世纪公园,B
石家庄,长安区,38.0457,114.509,河北,1034A,人民会堂,B
石家庄,鹿泉区,37.8911,114.3524,河北,1035A,封龙山(对照点),B
唐山,路北区,39.6363,118.131,河北,1037A,雷达站,B
唐山,路北区,39.6334,118.1725,河北,1038A,物资局,B
唐山,路北区,39.6506,118.1705,河北,1040A,十二中,B
唐山,路南区,39.622,118.1869,河北,1041A,小山,B
秦皇岛,山海关区,40.0116,119.7493,河北,1043A,第一关,B
秦皇岛,海港区,39.9499,119.5897,河北,1044A,监测站,B
秦皇岛,海港区,39.9041,119.5251,河北,1046A,建设大厦,B
邯郸,丛台区,36.6116,114.5302,河北,1048A,东污水处理厂,B
邯郸,邯山区,36.5713,114.4918,河北,1049A,矿院,B
邯郸,丛台区,36.6133,114.484,河北,1050A,丛台公园,B
保定,莲池区,38.8632,115.493,河北,1051A,游泳馆,B
保定,莲池区,38.8959,115.5213,河北,1052A,华电二区,B
保定,莲池区,38.8416,115.4612,河北,1054A,地表水厂,B
保定,莲池区,38.8639,115.5086,河北,1056A,监测站,B
张家口,桥西区,40.8336,114.8883,河北,1057A,人民公园,B
张家口,开发区,40.762,114.8902,河北,1060A,世纪豪园,B
张家口,桥西区,40.8661,114.8916,河北,1061A,北泵房(对照点),B
承德,双桥区,40.9081,117.9531,河北,1062A,铁路,B
承德,双桥区,40.9763,117.9392,河北,1063A,中国银行,B
承德,双桥区,40.928,117.9503,河北,1064A,开发区,B
承德,双桥区,41.0026,117.9268,河北,1066A,离宫(对照点),B
廊坊,广阳区,39.5589,116.7214,河北,1068A,开发区,B
廊坊,广阳区,39.5269,116.7244,河北,1070A,北华航天学院,B
沧州,新华区,38.2991,116.8842,河北,1071A,沧县城建局,B
沧州,运河区,38.3254,116.8584,河北,1072A,电视转播站,B
沧州,新华区,38.3228,116.8709,河北,1073A,市环保局,B
衡水,桃城区,37.7316,115.6303,河北,1075A,市监测站,B
邢台,桥西区,37.0886,114.4704,河北,1077A,达活泉,B
邢台,桥东区,37.0349,114.5062,河北,1078A,邢师高专,B
邢台,桥西区,37.0719,114.4725,河北,1080A,市环保局,B
太原,尖草坪区,37.8873,112.5139,山西,1081A,尖草坪,B
太原,晋源区,37.7124,112.469,山西,1084A,晋源,B
太原,杏花岭区,37.8692,112.5369,山西,1086A,桃园,B
太原,小店区,37.8195,112.57,山西,1087A,坞城,B
太原,尖草坪区,37.9854,112.549,山西,1088A,南寨,B
呼和浩特,玉泉区,40.7517,111.6507,内蒙古,1090A,呼市一监,B
呼和浩特,玉泉区,40.8033,111.6572,内蒙古,1091A,小召,B
呼和浩特,赛罕区,40.8369,111.7516,内蒙古,1094A,如意水处理厂,B
呼和浩特,赛罕区,40.8062,111.7276,内蒙古,1095A,二十九中,B
呼和浩特,经济技术开发区,40.7866,111.5512,内蒙古,1096A,工大金川校区,B
呼和浩特,赛罕区,40.7612,111.717,内蒙古,1097A,化肥厂生活区,B
沈阳,浑南区,41.7406,123.505,辽宁,1099A,浑南东路,B
沈阳,浑南区,41.6989,123.4231,辽宁,1100A,新秀街,B
沈阳,浑南区,41.8411,123.5903,辽宁,1102A,东陵路,B
沈阳,皇姑区,41.8467,123.4264,辽宁,1103A,陵东街,B
沈阳,和平区,41.7653,123.4114,辽宁,1104A,文化路,B
沈阳,和平区,41.7972,123.4017,辽宁,1106A,太原街,B
沈阳,沈北新区,41.9228,123.3783,辽宁,1108A,京沈街,B
大连,甘井子区,38.9741,121.612,辽宁,1109A,甘井子,B
大连,甘井子区,38.9511,121.565,辽宁,1110A,周水子,B
大连,沙河口区,38.8845,121.5637,辽宁,1111A,星海三站,B
大连,中山区,38.9117,121.6302,辽宁,1112A,青泥洼桥,B
大连,西岗区,38.8638,121.6251,辽宁,1113A,傅家庄,B
大连,甘井子区,38.8661,121.5213,辽宁,1114A,七贤岭,B
大连,金州区,39.1311,121.7485,辽宁,1116A,金州,B
大连,金州区,39.0496,121.7811,辽宁,1117A,开发区,B
大连,金州区,39.0631,121.9762,辽宁,1118A,双D港,B
长春,宽城区,43.9166,125.3325,吉林,1119A,食品厂,B
长春,绿园区,43.9027,125.2863,吉林,1120A,客车厂,B
长春,朝阳区,43.8463,125.2841,吉林,1121A,邮电学院,B
长春,二道区,43.8772,125.3716,吉林,1122A,劳动公园,B
长春,南关区,43.8805,125.3297,吉林,1123A,园林处,B
长春,净月高新技术产业开发区,43.79,125.4605,吉林,1124A,净月潭,B
长春,高新技术产业开发区,43.7783,125.245,吉林,1127A,高新区管委会,B
长春,汽车产业开发区,43.8325,125.1761,吉林,1128A,岱山公园,B
哈尔滨,道里区,45.755,126.5422,黑龙江,1129A,岭北(对照点),B
哈尔滨,松北区,45.8167,126.561,黑龙江,1130A,松北商大,B
哈尔滨,阿城区,45.5419,126.979,黑龙江,1131A,阿城会宁,B
哈尔滨,道外区,45.7733,126.689,黑龙江,1133A,太平宏伟公园,B
哈尔滨,香坊区,45.7319,126.685,黑龙江,1135A,香坊红旗大街,B
哈尔滨,香坊区,45.7258,126.6411,黑龙江,1136A,动力和平路,B
哈尔滨,道里区,45.7478,126.593,黑龙江,1137A,道里建国路,B
哈尔滨,平房区,45.61,126.615,黑龙江,1138A,平房东轻厂,B
哈尔滨,呼兰区,45.9855,126.595,黑龙江,1139A,呼兰师专,B
哈尔滨,南岗区,45.6842,126.6206,黑龙江,1140A,省农科院,B
上海,普陀区,31.238,121.4,上海,1141A,普陀,B
上海,黄浦区,31.2036,121.478,上海,1142A,十五厂,B
上海,虹口区,31.3008,121.467,上海,1143A,虹口,B
上海,徐汇区,31.1654,121.412,上海,1144A,徐汇上师大,B
上海,杨浦区,31.2659,121.536,上海,1145A,杨浦四漂,B
上海,静安区,31.2261,121.425,上海,1147A,静安监测站,B
上海,浦东新区,31.2284,121.533,上海,1149A,浦东新区监测站,B
上海,浦东新区,31.2071,121.577,上海,1150A,浦东张江,B
南京,栖霞区,32.1065,118.8086,江苏,1151A,迈皋桥,B
南京,鼓楼区,32.0551,118.7538,江苏,1152A,草场门,B
南京,鼓楼区,32.0745,118.7794,江苏,1153A,山西路,B
南京,雨花台区,32.0023,118.7752,江苏,1154A,中华门,B
南京,玄武区,32.0754,118.7997,江苏,1156A,玄武湖,B
南京,浦口区,32.0931,118.6414,江苏,1157A,浦口,B
南京,建邺区,31.9996,118.7356,江苏,1158A,奥体中心,B
南京,栖霞区,32.1028,118.9125,江苏,1159A,仙林大学城,B
苏州,姑苏区,31.3019,120.591,江苏,1162A,彩香,B
苏州,姑苏区,31.3264,120.596,江苏,1163A,轧钢厂,B
苏州,吴中区,31.2703,120.613,江苏,1164A,吴中区,B
苏州,虎丘区,31.2994,120.543,江苏,1165A,苏州新区,B
苏州,吴中区,31.3097,120.669,江苏,1166A,苏州工业园区,B
苏州,相城区,31.3708,120.641,江苏,1167A,相城区,B
南通,崇川区,31.9663,120.9098,江苏,1168A,狼山街道,B
南通,崇川区,32.0005,120.86,江苏,1169A,虹桥,B
南通,崇川区,32.02,120.87,江苏,1170A,城中,B
南通,经济技术开发区,31.93,120.94,江苏,1171A,星湖花园,B
连云港,海州区,34.5885,119.176,江苏,1173A,市环境监测站,B
徐州,泉山区,34.2761,117.179,江苏,1177A,黄河新村,B
徐州,泉山区,34.2384,117.1918,江苏,1178A,淮塔,B
徐州,云龙区,34.2153,117.256,江苏,1180A,新城区,B
徐州,经济技术开发区,34.2778,117.2933,江苏,1182A,农科院,B
无锡,滨湖区,31.4867,120.269,江苏,1188A,雪浪,B
无锡,梁溪区,31.6219,120.275,江苏,1189A,黄巷,B
无锡,梁溪区,31.56,120.294,江苏,1190A,曹张,B
无锡,滨湖区,31.5031,120.242,江苏,1191A,漆塘,B
无锡,锡山区,31.5863,120.3489,江苏,1192A,东亭,B
无锡,新吴区,31.5475,120.354,江苏,1193A,旺庄,B
无锡,滨湖区,31.5631,120.245,江苏,1194A,荣巷,B
常州,天宁区,31.762,119.9633,江苏,1196A,市监测站,B
常州,武进区,31.7069,119.9468,江苏,1200A,武进监测站,B
常州,新北区,31.9087,119.9255,江苏,1201A,安家,B
镇江,京口区,32.1968,119.4974,江苏,1204A,职教中心,B
镇江,丹徒区,32.1328,119.4303,江苏,1205A,丹徒区监测站,B
泰州,海陵区,32.4878,119.905,江苏,1206A,公园路,B
泰州,海陵区,32.4625,119.9189,江苏,1207A,莲花,B
泰州,医药高新区,32.4639,119.888,江苏,1209A,留学生创业园,B
淮安,清江浦区,33.5981,119.036,江苏,1210A,钵池山,B
淮安,清江浦区,33.6067,118.989,江苏,1212A,市监测站,B
淮安,淮安区,33.5039,119.135,江苏,1213A,楚州区监测站,B
淮安,淮阴区,33.6297,119.0186,江苏,1214A,淮阴区监测站,B
盐城,亭湖区,33.4022,120.118,江苏,1215A,盐城电厂,B
盐城,亭湖区,33.3942,120.156,江苏,1216A,市监测站,B
盐城,亭湖区,33.38,120.2144,江苏,1218A,开发区管委会,B
宿迁,宿城区,33.9528,118.293,江苏,1220A,宿迁学院,B
杭州,西湖区,30.2747,120.0633,浙江,1224A,西溪,B
杭州,江干区,30.3153,120.3461,浙江,1226A,下沙,B
杭州,西湖区,30.2456,120.1269,浙江,1227A,卧龙桥,B
杭州,江干区,30.2692,120.1903,浙江,1228A,浙江农大,B
杭州,拱墅区,30.3119,120.1197,浙江,1230A,和睦小学,B
杭州,余杭区,30.4183,120.3019,浙江,1231A,临平镇,B
杭州,萧山区,30.1819,120.2697,浙江,1232A,城厢镇,B
杭州,西湖区,30.1808,120.0883,浙江,1233A,云栖,B
宁波,北仑区,29.911,121.8358,浙江,1234A,区环保大楼,B
宁波,鄞州区,29.82,121.56,浙江,1235A,万里学院,B
宁波,镇海区,29.9572,121.713,浙江,1236A,龙赛医院,B
宁波,鄞州区,29.7733,121.633,浙江,1239A,钱湖水厂,B
宁波,海曙区,29.8674,121.524,浙江,1241A,市环境监测中心,B
温州,瓯海区,28.0089,120.634,浙江,1242A,瓯海,B
温州,鹿城区,27.9939,120.6748,浙江,1243A,南浦,B
温州,龙湾区,27.9747,120.76,浙江,1244A,龙湾,B
湖州,吴兴区,30.8669,120.0751,浙江,1250A,城西水厂,B
嘉兴,南湖区,30.778,120.7436,浙江,1252A,清河小学,B
嘉兴,南湖区,30.7478,120.726,浙江,1253A,嘉兴学院,B
台州,黄岩区,28.6459,121.273,浙江,1255A,黄岩环保大楼,B
台州,路桥区,28.5773,121.377,浙江,1257A,路桥田洋王,B
舟山,定海区,30.0203,122.122,浙江,1258A,定海檀枫,B
舟山,定海区,29.9944,122.19,浙江,1260A,临城新区,B
金华,金东区,29.1028,119.6856,浙江,1263A,监测站,B
衢州,柯城区,28.9398,118.8692,浙江,1264A,环保大楼,B
衢州,柯城区,28.9808,118.8621,浙江,1266A,衢州学院,B
丽水,莲都区,28.4586,119.93,浙江,1268A,莲都小学,B
丽水,莲都区,28.4231,119.879,浙江,1269A,余庄前,B
合肥,蜀山区,31.7848,117.1959,安徽,1270A,明珠广场,B
合肥,瑶海区,31.8764,117.3072,安徽,1271A,三里街,B
合肥,蜀山区,31.8707,117.2588,安徽,1272A,琥珀山庄,B
合肥,庐阳区,31.9052,117.1604,安徽,1273A,董铺水库(对照点),B
合肥,蜀山区,31.8571,117.25,安徽,1274A,长江中路,B
合肥,庐阳区,31.9436,117.266,安徽,1275A,庐阳区,B
合肥,瑶海区,31.8586,117.336,安徽,1276A,瑶海区,B
合肥,包河区,31.7964,117.3027,安徽,1277A,包河区,B
合肥,高新区,31.8403,117.1318,安徽,1279A,高新区,B
福州,仓山区,26.0504,119.2681,福建,1282A,师大,B
福州,鼓楼区,26.1028,119.2984,福建,1283A,五四北路,B
福州,鼓楼区,26.0768,119.2648,福建,1284A,杨桥西路,B
福州,鼓楼区,26.0746,119.317,福建,1285A,紫阳,B
厦门,思明区,24.4767,118.1514,福建,1287A,洪文,B
厦门,思明区,24.4444,118.0661,福建,1288A,鼓浪屿,B
南昌,东湖区,28.6843,115.8931,江西,1290A,省外办,B
南昌,东湖区,28.7003,115.8886,江西,1291A,省林业公司,B
南昌,经开区,28.7442,115.8126,江西,1292A,林科所,B
南昌,红谷滩区,28.687,115.8518,江西,1294A,建工学校,B
南昌,西湖区,28.6424,115.8921,江西,1295A,象湖,B
南昌,新建区,28.7996,115.7423,江西,1296A,武术学校(对照点),B
济南,市中区,36.6114,116.9862,山东,1299A,科干所,B
济南,槐荫区,36.665,116.9376,山东,1300A,农科所,B
济南,高新区,36.6734,117.1265,山东,1301A,开发区,B
济南,历城区,36.6868,117.0624,山东,1303A,省种子仓库,B
济南,槐荫区,36.6447,116.9489,山东,1304A,机床二厂,B
济南,历下区,36.663,117.0495,山东,1305A,市监测站,B
济南,长清区,36.5484,116.7675,山东,1306A,长清党校,B
青岛,崂山区,36.2403,120.6659,山东,1307A,仰口(对照点),B
青岛,市南区,36.0658,120.4134,山东,1310A,市南区东部子站,B
青岛,市北区,36.1032,120.3664,山东,1311A,四方区子站,B
青岛,市南区,36.054,120.2994,山东,1312A,市南区西部子站,B
青岛,崂山区,36.0858,120.4581,山东,1313A,崂山区子站,B
青岛,黄岛区,35.9608,120.1983,山东,1314A,黄岛区子站,B
郑州,管城回族区,34.76116,113.69039,河南,1316A,烟厂,B
郑州,金水区,34.77134,113.65716,河南,1317A,郑纺机,B
郑州,金水区,34.80239,113.67525,河南,1318A,银行学校,B
郑州,高新区,34.81325,113.5674,河南,1319A,供水公司,B
郑州,经开区,34.7178,113.73293,河南,1320A,经开区管委,B
郑州,郑东新区,34.77176,113.73937,河南,1321A,四十七中,B
郑州,中原区,34.74834,113.60531,河南,1322A,市监测站,B
武汉,东湖生态旅游风景区,30.5584,114.3677,湖北,1325A,东湖梨园,B
武汉,汉阳区,30.558,114.2529,湖北,1326A,汉阳月湖,B
武汉,江岸区,30.6189,114.282,湖北,1327A,汉口花桥,B
武汉,武昌区,30.5332,114.3025,湖北,1328A,武昌紫阳,B
武汉,青山区,30.6217,114.3646,湖北,1329A,青山钢花,B
武汉,汉南区,30.4825,114.1566,湖北,1330A,沌口新区,B
武汉,东西湖区,30.6319,114.135,湖北,1333A,吴家山,B
武汉,蔡甸区,30.2917,113.8454,湖北,1334A,沉湖七壕(对照点),B
长沙,长沙县,28.2325,113.0833,湖南,1335A,经开区环保局,B
长沙,岳麓区,28.2189,112.8872,湖南,1336A,高开区环保局,B
长沙,芙蓉区,28.2053,113.0792,湖南,1337A,马坡岭,B
长沙,岳麓区,28.19,112.9394,湖南,1338A,湖南师范大学,B
长沙,雨花区,28.1322,113.0178,湖南,1339A,雨花区环保局,B
长沙,开福区,28.2597,112.9792,湖南,1340A,伍家岭,B
长沙,芙蓉区,28.1944,113.0014,湖南,1341A,火车新站,B
长沙,岳麓区,28.1308,112.8908,湖南,1343A,湖南中医药大学,B
长沙,开福区,28.3611,112.9581,湖南,1344A,沙坪(对照点),B
广州,荔湾区,23.1423,113.2347,广东,1345A,广雅中学,B
广州,海珠区,23.105,113.2612,广东,1346A,市五中,B
广州,海珠区,23.0916,113.3478,广东,1348A,广东商学院,B
广州,黄埔区,23.1047,113.4332,广东,1349A,市八十六中,B
广州,番禺区,22.9483,113.3505,广东,1350A,番禺中学,B
广州,花都区,23.3916,113.2146,广东,1351A,花都师范,B
广州,越秀区,23.1331,113.2597,广东,1352A,市监测站,B
广州,黄埔区,23.312,113.5618,广东,1353A,九龙镇镇龙,B
广州,越秀区,23.1544,113.2765,广东,1354A,麓湖,B
广州,白云区,23.3035,113.443,广东,1355A,帽峰山森林公园(对照点),B
深圳,福田区,22.5545,114.1063,广东,1356A,通心岭子站,B
深圳,罗湖区,22.5625,114.117,广东,1357A,洪湖,B
深圳,南山区,22.5417,113.987,广东,1358A,华侨城,B
深圳,南山区,22.5171,113.9181,广东,1359A,南海子站,B
深圳,龙岗区,22.7244,114.2283,广东,1361A,龙岗,B
深圳,龙岗区,22.5422,114.494,广东,1363A,南澳,B
深圳,龙岗区,22.6342,114.41,广东,1364A,葵涌,B
深圳,盐田区,22.5978,114.297,广东,1365A,梅沙,B
深圳,龙华区,22.738,114.0678,广东,1366A,观澜,B
珠海,香洲区,22.2618,113.5814,广东,1367A,吉大,B
珠海,香洲区,22.4251,113.628,广东,1369A,唐家,B
珠海,斗门区,22.2281,113.299,广东,1370A,斗门,B
佛山,禅城区,23.0067,113.1294,广东,1371A,湾梁,B
佛山,禅城区,23.0478,113.1083,广东,1372A,华材职中,B
佛山,南海区,23.0453,113.144,广东,1373A,南海气象局,B
佛山,顺德区,22.8094,113.2881,广东,1374A,顺德苏岗,B
佛山,三水区,23.1588,112.8836,广东,1377A,三水监测站,B
佛山,三水区,23.185,112.867,广东,1378A,三水云东海,B
中山,石岐区,22.5211,113.3769,广东,1379A,华柏园,B
中山,石岐区,22.5497,113.3881,广东,1380A,张溪,B
江门,蓬江区,22.5835,113.0731,广东,1384A,西区,B
江门,新会区,22.5311,113.0219,广东,1385A,圭峰西,B
江门,蓬江区,22.5947,113.0828,广东,1386A,东湖(对照点),B
东莞,市区,23.0494,113.7547,广东,1389A,莞城梨川,B
东莞,市区,22.9658,113.7383,广东,1391A,南城西平,B
惠州,惠城区,23.0528,114.4183,广东,1392A,河南岸金山湖子站,B
惠州,惠城区,23.0822,114.4053,广东,1393A,下埔横江三路子站,B
惠州,惠城区,23.1142,114.4103,广东,1394A,江北云山西路子站,B
惠州,惠阳区,22.7422,114.5317,广东,1396A,大亚湾管委会子站,B
肇庆,端州区,23.0706,112.4267,广东,1397A,睦岗子站,B
肇庆,端州区,23.0475,112.4645,广东,1398A,城中子站,B
肇庆,鼎湖区,23.1522,112.5544,广东,1399A,坑口子站,B
南宁,江南区,22.7881,108.3103,广西,1401A,振宁花园,B
南宁,西乡塘区,22.8528,108.3141,广西,1402A,北湖,B
南宁,兴宁区,22.8225,108.3206,广西,1403A,市监测站,B
南宁,青秀区,22.8037,108.3829,广西,1404A,大自然花园,B
南宁,青秀区,22.7904,108.4394,广西,1405A,仙葫(对照点),B
南宁,西乡塘区,22.8467,108.2397,广西,1406A,区农职院,B
南宁,江南区,22.7757,108.2257,广西,1408A,沙井镇街道办,B
海口,美兰区,20.0574,110.3232,海南,1410A,海南大学,B
海口,秀英区,20.0053,110.283,海南,1411A,秀英海南医院,B
海口,龙华区,19.9969,110.338,海南,1412A,海南师范大学,B
海口,龙华区,20.0356,110.33,海南,1413A,龙华路环保局宿舍,B
重庆,北碚区,29.8279,106.3787,重庆,1414A,缙云山(对照点),B
重庆,北碚区,29.8253,106.4213,重庆,1416A,天生,B
重庆,渝北区,29.7228,106.6263,重庆,1417A,两路,B
重庆,高新区,29.5983,106.2953,重庆,1418A,虎溪,B
重庆,南岸区,29.5102,106.5777,重庆,1419A,南坪,B
重庆,江北区,29.6277,106.6556,重庆,1420A,唐家沱,B
重庆,南岸区,29.4906,106.6349,重庆,1421A,茶园,B
重庆,高新区,29.4572,106.3754,重庆,1422A,白市驿,B
重庆,渝北区,29.7166,106.6205,重庆,1425A,空港,B
重庆,大渡口区,29.4875,106.4782,重庆,1426A,新山村,B
重庆,两江新区,29.6453,106.5616,重庆,1427A,礼嘉,B
重庆,巴南区,29.3917,106.5093,重庆,1429A,鱼新街,B
成都,郫都区,30.7236,103.9728,四川,1431A,金泉两河,B
成都,武侯区,30.5767,104.0594,四川,1433A,三瓦窑,B
成都,锦江区,30.6306,104.1122,四川,1434A,沙河铺,B
成都,青羊区,30.6556,104.0431,四川,1437A,君平街,B
成都,都江堰市,31.0201,103.6202,四川,1438A,灵岩寺(对照点),B
贵阳,云岩区,26.5998,106.6899,贵州,1439A,马鞍山,B
贵阳,南明区,26.5694,106.6971,贵州,1440A,市环保站,B
贵阳,观山湖区,26.6266,106.6243,贵州,1441A,鉴湖路,B
贵阳,乌当区,26.6343,106.7487,贵州,1442A,燕子冲,B
贵阳,花溪区,26.4365,106.6555,贵州,1443A,碧云窝,B
贵阳,云岩区,26.6027,106.7109,贵州,1445A,红边门,B
贵阳,南明区,26.5699,106.7164,贵州,1446A,新华路,B
贵阳,南明区,26.5424,106.674,贵州,1447A,太慈桥,B
昆明,西山区,24.9608,102.6251,云南,1451A,西山森林公园(对照点),B
昆明,盘龙区,25.0902,102.7252,云南,1452A,龙泉镇,B
昆明,盘龙区,25.0375,102.7266,云南,1453A,东风东路,B
昆明,五华区,25.0669,102.6742,云南,1454A,金鼎山,B
昆明,西山区,25.0401,102.6644,云南,1455A,碧鸡广场,B
拉萨,城关区,29.6514,91.1319,西藏,1456A,八廓街,B
拉萨,城关区,29.6747,91.1221,西藏,1457A,市环保局,B
拉萨,城关区,29.6475,91.0874,西藏,1458A,区监测站,B
拉萨,堆龙德庆区,29.6588,90.9798,西藏,1460A,区辐射站,B
拉萨,城关区,29.6292,91.0834,西藏,1461A,拉萨火车站,B
西安,莲湖区,34.2749,108.882,陕西,1462A,高压开关厂,B
西安,碑林区,34.2629,108.993,陕西,1463A,兴庆小区,B
西安,灞桥区,34.2572,109.06,陕西,1464A,纺织城,B
西安,雁塔区,34.2173,108.9356,陕西,1465A,小寨,B
西安,新城区,34.2713,108.954,陕西,1466A,市人民体育场,B
西安,雁塔区,34.2322,108.8922,陕西,1467A,高新西区,B
西安,未央区,34.3474,108.935,陕西,1468A,经开区,B
西安,长安区,34.1546,108.906,陕西,1469A,长安区,B
西安,临潼区,34.3731,109.2186,陕西,1471A,临潼区,B
西安,未央区,34.378,108.869,陕西,1472A,草滩(对照点),B
西安,浐灞生态区,34.3213,109.051,陕西,1474A,广运潭,B
兰州,西固区,36.1031,103.631,甘肃,1476A,兰炼宾馆,B
兰州,城关区,36.0726,103.8412,甘肃,1478A,生物制品所,B
银川,西夏区,38.6016,105.9512,宁夏,1484A,贺兰山马莲口(对照点),B
银川,西夏区,38.5036,106.1358,宁夏,1489A,学院路,B
乌鲁木齐,沙依巴克区,43.8303,87.5801,新疆,1490A,监测站,B
乌鲁木齐,天山区,43.768,87.6046,新疆,1491A,收费所,B
乌鲁木齐,新市区,43.9469,87.4754,新疆,1492A,新疆农科院农场(对照点),B
乌鲁木齐,新市区,43.8711,87.5525,新疆,1493A,铁路局,B
乌鲁木齐,水磨沟区,43.831,87.6432,新疆,1494A,三十一中学,B
湘潭,岳塘区,27.8614,112.9433,湖南,1508A,板塘,B
湘潭,岳塘区,27.8403,112.9118,湖南,1511A,市监测站,B
湘潭,雨湖区,27.8728,112.8937,湖南,1512A,江麓,B
湘潭,湘潭县,27.9119,112.9074,湖南,1514A,科大,B
株洲,石峰区,27.8867,113.095,湖南,1518A,株冶医院,B
株洲,荷塘区,27.8667,113.167,湖南,1519A,市四中,B
株洲,芦淞区,27.8381,113.143,湖南,1520A,火车站,B
株洲,芦淞区,27.8528,113.13,湖南,1524A,市监测站,B
株洲,芦淞区,27.8336,113.251,湖南,1559A,大京风景区(对照点),B
湘潭,岳塘区,27.9153,113.0048,湖南,1562A,昭山,B
湘潭,韶山市,27.9164,112.4876,湖南,1564A,韶山(对照点),B
包头,青山区,40.6532,109.8756,内蒙古,1585A,市环境监测站,B
包头,东河区,40.5842,109.9991,内蒙古,1587A,包头八中,B
包头,青山区,40.6821,109.8538,内蒙古,1588A,青山宾馆,B
包头,稀土高新技术产业开发区,40.6288,109.8642,内蒙古,1589A,惠龙物流,B
包头,东河区,40.5546,110.0377,内蒙古,1590A,东河鸿龙湾,B
鄂尔多斯,东胜区,39.8129,110.0023,内蒙古,1591A,综合楼,B
鄂尔多斯,东胜区,39.8261,109.9486,内蒙古,1592A,巴音孟克林场办事处,B
鄂尔多斯,康巴什区,39.5986,109.7736,内蒙古,1593A,康泽苑,B
鄂尔多斯,东胜区,39.7884,109.9734,内蒙古,1595A,奥林花园,B
营口,站前区,40.7094,122.2703,辽宁,1597A,大庆路,B
营口,西市区,40.6511,122.215,辽宁,1598A,镜湖西路,B
丹东,振兴区,40.0625,124.3303,辽宁,1600A,江湾东路,B
丹东,振安区,40.1503,124.4256,辽宁,1601A,临江后街,B
丹东,振兴区,40.1092,124.3633,辽宁,1603A,民主桥,B
盘锦,大洼区,41.0883,122.0485,辽宁,1605A,兴隆台,B
盘锦,兴隆台区,41.1028,121.8297,辽宁,1606A,新生街道,B
葫芦岛,连山区,40.7514,120.8392,辽宁,1608A,化工街,B
葫芦岛,龙港区,40.7073,120.8341,辽宁,1609A,新区,B
葫芦岛,连山区,40.7677,120.8695,辽宁,1610A,东城区,B
泉州,鲤城区,24.9117,118.5819,福建,1611A,涂山街,B
泉州,丰泽区,24.8978,118.5972,福建,1612A,津头埔,B
济南,莱芜区,36.229,117.6795,山东,1616A,技术学院,B
临沂,兰山区,35.0532,118.3429,山东,1618A,沂河小区,B
临沂,兰山区,35.0583,118.295,山东,1619A,鲁南制药厂,B
临沂,罗庄区,34.9976,118.2794,山东,1620A,新光毛纺厂,B
德州,德城区,37.4674,116.3032,山东,1622A,儿童乐园,B
德州,德城区,37.4451,116.2991,山东,1624A,监理站,B
聊城,东昌府区,36.4372,115.9848,山东,1625A,区政府,B
滨州,滨城区,37.3803,118.0062,山东,1628A,市环保局,B
滨州,滨城区,37.3617,118.0018,山东,1629A,第二水厂,B
滨州,滨城区,37.393,117.9776,山东,1630A,北中新校,B
淄博,张店区,36.8103,118.0414,山东,1631A,人民公园,B
淄博,博山区,36.4847,117.8525,山东,1633A,双山,B
淄博,淄川区,36.6331,117.9592,山东,1634A,气象站,B
淄博,临淄区,36.8194,118.3092,山东,1635A,莆田园,B
枣庄,市中区,34.8438,117.558,山东,1637A,市中区政府,B
枣庄,薛城区,34.7837,117.2852,山东,1638A,薛城环保局,B
枣庄,台儿庄区,34.5578,117.7276,山东,1640A,台儿庄区环保局,B
枣庄,山亭区,35.0992,117.4518,山东,1641A,山亭区环保局,B
烟台,开发区,37.5639,121.2514,山东,1642A,开发区,B
烟台,芝罘区,37.5433,121.3719,山东,1643A,轴承厂,B
烟台,芝罘区,37.5436,121.3181,山东,1644A,十四中学（西郊化工站）,B
烟台,莱山区,37.4822,121.4478,山东,1645A,工商学院（莱山环保局）,B
烟台,福山区,37.4967,121.2611,山东,1646A,福山环保局,B
潍坊,奎文区,36.7023,119.1437,山东,1650A,潍坊市环保局,B
济宁,高新区,35.4302,116.6251,山东,1653A,火炬城,B
济宁,任城区,35.4042,116.5491,山东,1655A,电化厂,B
泰安,泰山区,36.1937,117.1437,山东,1656A,监测站,B
泰安,泰山区,36.1758,117.1089,山东,1658A,电力学校,B
日照,东港区,35.4209,119.471,山东,1659A,监测站,B
日照,东港区,35.4216,119.523,山东,1660A,市政府广场,B
日照,东港区,35.4044,119.5587,山东,1661A,港务局,B
威海,火炬高技术产业开发区,37.5236,122.0508,山东,1663A,山大分校,B
威海,环翠区,37.5072,122.1067,山东,1664A,市监测站,B
东营,东营区,37.4309,118.6614,山东,1666A,东营市环保局,B
韶关,浈江区,24.7733,113.5824,广东,1669A,市八中,B
韶关,浈江区,24.7972,113.5917,广东,1671A,园林处,B
韶关,浈江区,24.7791,113.6735,广东,1672A,韶关学院,B
韶关,曲江区,24.6863,113.5971,广东,1673A,曲江监测站,B
汕头,金平区,23.3667,116.6794,广东,1674A,金平子站,B
汕头,龙湖区,23.3633,116.7244,广东,1675A,龙湖子站,B
汕头,濠江区,23.2775,116.7258,广东,1676A,濠江子站,B
汕头,澄海区,23.4714,116.7519,广东,1677A,澄海子站,B
汕头,潮阳区,23.2539,116.6092,广东,1678A,潮阳子站,B
湛江,霞山区,21.2228,110.3928,广东,1681A,市环境监测站,B
湛江,霞山区,21.1997,110.4019,广东,1682A,环保局宿舍,B
湛江,霞山区,21.2028,110.4111,广东,1683A,霞山游泳场,B
湛江,麻章区,21.2679,110.3316,广东,1684A,麻章区环保局,B
湛江,坡头区,21.2567,110.4558,广东,1685A,坡头区环保局,B
茂名,电白区,21.4688,111.0286,广东,1686A,电白南海,B
茂名,茂南区,21.6533,110.9294,广东,1687A,茂石化七小,B
茂名,茂南区,21.6687,110.9107,广东,1688A,健康路,B
茂名,茂南区,21.6828,110.8592,广东,1689A,高岭,B
梅州,梅江区,24.3284,116.1231,广东,1690A,梅江月梅,B
梅州,梅县区,24.2719,116.0797,广东,1691A,梅县新城,B
汕尾,城区,22.775,115.3653,广东,1693A,市环保局,B
汕尾,城区,22.7925,115.3622,广东,1695A,新城中学,B
河源,源城区,23.7586,114.6944,广东,1697A,东埔,B
河源,源城区,23.7233,114.6892,广东,1698A,老城,B
阳江,江城区,21.8593,111.9797,广东,1699A,鸳鸯湖(对照点),B
阳江,江城区,21.8658,111.9491,广东,1701A,马南垌,B
清远,清城区,23.7106,113.0208,广东,1703A,凤城街办,B
潮州,湘桥区,23.6719,116.6367,广东,1705A,西园路(对照点),B
潮州,湘桥区,23.6706,116.6447,广东,1706A,档案局,B
揭阳,榕城区,23.5345,116.3701,广东,1708A,新兴,B
揭阳,榕城区,23.5443,116.3264,广东,1709A,西马,B
揭阳,榕城区,23.5294,116.4151,广东,1711A,渔湖,B
玉溪,红塔区,24.3711,102.575,云南,1715A,东风水库,B
菏泽,牡丹区,35.2464,115.4208,山东,1718A,市气象局,B
菏泽,经济开发区,35.2375,115.4747,山东,1719A,市政协,B
大同,平城区,40.0758,113.2994,山西,1723A,云冈宾馆,B
大同,平城区,40.0917,113.3444,山西,1724A,大同大学,B
大同,平城区,40.1269,113.2661,山西,1725A,安家小村,B
大同,平城区,40.0844,113.2711,山西,1726A,教育学院,B
长治,潞州区,36.1547,113.1147,山西,1727A,清华站,B
长治,潞州区,36.2125,113.0886,山西,1730A,审计局,B
长治,潞州区,36.1856,113.0844,山西,1731A,长治八中,B
临汾,尧都区,36.0783,111.5531,山西,1733A,临钢医院,B
临汾,尧都区,36.0714,111.5028,山西,1734A,技工学校,B
阳泉,城区,37.8572,113.5758,山西,1738A,市中心,B
阳泉,矿区,37.8731,113.4894,山西,1739A,赛鱼,B
阳泉,城区,37.8486,113.5819,山西,1740A,南庄,B
阳泉,矿区,37.8703,113.5614,山西,1742A,平坦,B
赤峰,红山区,42.2728,118.9576,内蒙古,1745A,哈达街,B
赤峰,松山区,42.2554,118.8788,内蒙古,1746A,天义路,B
鞍山,立山区,41.1196,123.044,辽宁,1748A,深沟寺,B
鞍山,立山区,41.1442,123.0485,辽宁,1750A,太平,B
鞍山,铁西区,41.0971,122.9642,辽宁,1751A,铁西三道街,B
鞍山,铁西区,41.0833,122.9341,辽宁,1752A,铁西工业园区,B
鞍山,铁东区,41.0821,123.022,辽宁,1753A,明达新区,B
抚顺,望花区,41.8491,123.7977,辽宁,1755A,望花区,B
抚顺,顺城区,41.8822,123.9161,辽宁,1756A,顺城区,B
抚顺,东洲区,41.8611,124.0436,辽宁,1757A,东洲区,B
抚顺,东洲区,41.8961,124.0972,辽宁,1759A,大伙房水库,B
抚顺,望花区,41.8391,123.7086,辽宁,1760A,沈抚新城,B
本溪,溪湖区,41.3325,123.7567,辽宁,1762A,溪湖,B
本溪,溪湖区,41.3094,123.7169,辽宁,1763A,彩屯,B
本溪,平山区,41.2864,123.7669,辽宁,1764A,东明,B
本溪,明山区,41.2664,123.7992,辽宁,1765A,新立屯,B
本溪,明山区,41.3472,123.8142,辽宁,1766A,威宁,B
锦州,太和区,40.8434,121.0533,辽宁,1768A,开发区,B
锦州,凌河区,41.1119,121.1836,辽宁,1769A,百股街道,B
锦州,古塔区,41.1222,121.1178,辽宁,1770A,天安街道,B
锦州,凌河区,41.1386,121.1303,辽宁,1771A,北湖公园,B
吉林,昌邑区,43.8622,126.54,吉林,1772A,哈达湾,B
吉林,船营区,43.8245,126.5052,吉林,1774A,电力学院,B
吉林,龙潭区,43.8972,126.6133,吉林,1775A,江北,B
吉林,丰满区,43.8306,126.555,吉林,1776A,江南公园,B
齐齐哈尔,建华区,47.3636,123.9305,黑龙江,1779A,安居小区,B
齐齐哈尔,龙沙区,47.3386,123.9488,黑龙江,1780A,中心广场,B
齐齐哈尔,龙沙区,47.2988,123.945,黑龙江,1783A,市环境监测站,B
牡丹江,西安区,44.5782,129.6115,黑龙江,1785A,文化广场,B
牡丹江,爱民区,44.5963,129.5904,黑龙江,1786A,第一医院,B
牡丹江,东安区,44.5462,129.6386,黑龙江,1788A,第一中学,B
大庆,大同区,46.03138,124.81117,黑龙江,1789A,大同区,B
大庆,红岗区,46.408,124.902,黑龙江,1791A,红岗区,B
大庆,萨尔图区,46.586,125.153,黑龙江,1792A,萨尔图区,B
大庆,让胡路区,46.6215,124.9042,黑龙江,1793A,让胡路区,B
芜湖,镜湖区,31.3519,118.3606,安徽,1794A,监测站,B
芜湖,鸠江区,31.4134,118.3714,安徽,1795A,科创中心,B
芜湖,弋江区,31.3131,118.3673,安徽,1796A,四水厂,B
马鞍山,花山区,31.6837,118.5092,安徽,1798A,湖东路四小,B
马鞍山,雨山区,31.6449,118.5024,安徽,1799A,开发区,B
马鞍山,花山区,31.7231,118.5228,安徽,1800A,慈湖,B
马鞍山,花山区,31.7241,118.6245,安徽,1802A,濮塘(对照点),B
九江,濂溪区,29.6815,115.9872,江西,1803A,十里,B
九江,经济开发区,29.7046,115.9584,江西,1804A,茅山头,B
九江,濂溪区,29.6547,116.0172,江西,1806A,五七二七厂,B
九江,经济开发区,29.6038,115.9114,江西,1808A,综合工业园,B
九江,浔阳区,29.7535,116.0721,江西,1809A,石化总厂,B
九江,庐山市,29.5698,115.9773,江西,1810A,庐山气象台(对照点),B
洛阳,涧西区,34.6516,112.3931,河南,1812A,市委党校,B
洛阳,老城区,34.6871,112.4657,河南,1814A,豫西宾馆,B
洛阳,高新区,34.623,112.3844,河南,1816A,开发区管委会,B
洛阳,洛龙区,34.6258,112.4267,河南,1817A,市委新办公区,B
安阳,文峰区,36.1017,114.3551,河南,1819A,红庙街,B
安阳,开发区,36.0681,114.361,河南,1820A,银杏小区,B
开封,禹王台区,34.7781,114.3389,河南,1824A,肿瘤医院,B
开封,城乡一体化示范区,34.7965,114.2885,河南,1826A,世纪星幼儿园,B
焦作,解放区,35.2127,113.2269,河南,1828A,市环保局,B
平顶山,卫东区,33.742,113.3257,河南,1832A,新华旅馆,B
平顶山,新华区,33.737,113.2919,河南,1833A,规划设计院,B
平顶山,城乡一体化示范区,33.774,113.182,河南,1834A,平顶山工学院,B
三门峡,湖滨区,34.7752,111.1922,河南,1835A,市政府,B
三门峡,经开区,34.7942,111.1587,河南,1836A,开发区,B
宜昌,西陵区,30.6981,111.2992,湖北,1840A,白龙岗,B
宜昌,伍家岗区,30.6465,111.3549,湖北,1841A,伍家岗,B
宜昌,点军区,30.6961,111.2628,湖北,1842A,点军区,B
荆州,沙市区,30.3197,112.2494,湖北,1844A,市图书馆,B
岳阳,岳阳楼区,29.3578,113.1094,湖南,1847A,南湖风景区,B
岳阳,岳阳楼区,29.4251,113.1493,湖南,1848A,城陵矶,B
岳阳,岳阳楼区,29.3575,113.1497,湖南,1849A,开发区,B
岳阳,云溪区,29.4758,113.2621,湖南,1850A,云溪区,B
岳阳,君山区,29.4402,112.9943,湖南,1851A,君山区,B
常德,武陵区,28.9703,111.6975,湖南,1854A,市二中,B
常德,鼎城区,29.1456,111.7158,湖南,1857A,白鹤山(对照点),B
张家界,永定区,29.1217,110.5319,湖南,1858A,永定新区,B
张家界,永定区,29.1242,110.4697,湖南,1859A,电业局,B
张家界,武陵源区,29.3547,110.5594,湖南,1860A,未央路,B
桂林,象山区,25.2697,110.2819,广西,1863A,监测站,B
桂林,七星区,25.2708,110.3089,广西,1864A,龙隐路小学,B
桂林,象山区,25.2178,110.2869,广西,1865A,八中,B
北海,银海区,21.4086,109.1436,广西,1867A,海滩公园,B
北海,海城区,21.4661,109.0981,广西,1868A,新市环保局,B
北海,海城区,21.5233,109.1778,广西,1869A,北海工业园,B
柳州,城中区,24.3895,109.4856,广西,1870A,柳东小学,B
柳州,柳北区,24.3277,109.4157,广西,1871A,环保监测站,B
柳州,柳南区,24.341,109.389,广西,1872A,河西水厂,B
柳州,鱼峰区,24.2921,109.4311,广西,1873A,市四中,B
柳州,鱼峰区,24.3134,109.4958,广西,1875A,古亭山,B
三亚,吉阳区,18.2681,109.4964,海南,1877A,河西子站,B
绵阳,涪城区,31.4535,104.7563,四川,1879A,市人大,B
绵阳,涪城区,31.4668,104.6697,四川,1880A,高新区自来水公司,B
绵阳,涪城区,31.5075,104.7287,四川,1881A,三水厂,B
宜宾,翠屏区,28.793,104.6055,四川,1884A,宜宾四中,B
宜宾,叙州区,28.7562,104.639,四川,1885A,市政府,B
宜宾,翠屏区,28.7199,104.5742,四川,1886A,黄金嘴,B
攀枝花,东区,26.571,101.6891,四川,1888A,弄弄坪,B
攀枝花,西区,26.5928,101.5769,四川,1889A,河门口,B
攀枝花,仁和区,26.5008,101.7369,四川,1891A,仁和,B
泸州,龙马潭区,28.9063,105.4427,四川,1894A,小市上码头,B
泸州,江阳区,28.8573,105.4241,四川,1895A,兰田宪桥,B
泸州,江阳区,28.8833,105.4379,四川,1896A,市环监站,B
德阳,旌阳区,31.1208,104.4239,四川,1901A,东山公园,B
德阳,旌阳区,31.1317,104.3826,四川,1902A,西小区,B
南充,顺庆区,30.8064,106.056,四川,1905A,西山风景区(对照点),B
南充,顺庆区,30.8023,106.0789,四川,1906A,南充市委,B
南充,顺庆区,30.8217,106.1031,四川,1907A,南充炼油厂,B
南充,嘉陵区,30.7636,106.0642,四川,1909A,嘉陵区环保局,B
南充,顺庆区,30.8388,106.1087,四川,1910A,市环境监测站,B
遵义,红花岗区,27.6869,106.9222,贵州,1911A,丁字口,B
遵义,汇川区,27.7019,106.9242,贵州,1912A,凤凰山,B
遵义,红花岗区,27.6486,106.8906,贵州,1913A,忠庄,B
遵义,汇川区,27.72,106.9178,贵州,1915A,干田坝,B
曲靖,麒麟区,25.5364,103.8,云南,1917A,烟厂办公区,B
咸阳,秦都区,34.3155,108.673,陕西,1919A,实验中学,B
铜川,王益区,35.0994,109.0656,陕西,1922A,党校(对照点),B
铜川,王益区,35.0697,109.0697,陕西,1923A,王益区政府,B
铜川,耀州区,34.9058,108.9344,陕西,1924A,新区管委会,B
延安,宝塔区,36.6275,109.4131,陕西,1926A,枣园(对照点),B
延安,宝塔区,36.6028,109.4761,陕西,1927A,延大医附院,B
延安,宝塔区,36.6106,109.5056,陕西,1929A,百米大道,B
宝鸡,渭滨区,34.3063,107.185,陕西,1930A,庙沟村(对照点),B
宝鸡,渭滨区,34.3017,107.0708,陕西,1931A,竹园沟,B
宝鸡,金台区,34.3672,107.1906,陕西,1932A,三陆医院,B
宝鸡,渭滨区,34.3547,107.1431,陕西,1933A,监测站,B
宝鸡,陈仓区,34.3528,107.3906,陕西,1935A,陈仓区环保局家属楼,B
宝鸡,高新区,34.3497,107.2058,陕西,1936A,文理学院,B
宝鸡,金台区,34.3622,107.2386,陕西,1937A,三迪小学,B
渭南,临渭区,34.493,109.4636,陕西,1940A,体育馆,B
渭南,临渭区,34.5023,109.4259,陕西,1941A,高新一小,B
金昌,金川区,38.5167,102.1692,甘肃,1944A,公司二招,B
嘉峪关,市区,39.7711,98.2908,甘肃,1945A,气象局,B
石嘴山,平罗县,38.817,106.3394,宁夏,1947A,沙湖旅游区(对照点),B
石嘴山,大武口区,39.0145,106.3668,宁夏,1948A,大武口黄河东街,B
石嘴山,惠农区,39.1325,106.7099,宁夏,1950A,红果子镇惠新街,B
克拉玛依,克拉玛依区,45.6094,84.895,新疆,1951A,长征新村,B
克拉玛依,独山子区,44.3396,84.905,新疆,1954A,独山子区,B
克拉玛依,乌尔禾区,46.098,85.6979,新疆,1955A,乌尔禾区商贸楼,B
巴音郭楞州,库尔勒市,41.7166,86.1972,新疆,1957A,棉纺厂,B
巴音郭楞州,库尔勒市,41.7173,86.2357,新疆,1958A,经济开发区,B
济南,章丘区,36.6868,117.532,山东,1961A,东山小学(145),B
青岛,黄岛区,35.8735,120.0405,山东,1966A,黄岛区4号(145),B
威海,文登区,37.2174,122.0693,山东,1982A,文登开发区(新增200107),B
株洲,石峰区,27.9958,113.1817,湖南,2031A,云田中学,B
信阳,平桥区,32.1059,114.1099,河南,2054A,平桥分局,B
信阳,浉河区,32.1195,114.0775,河南,2065A,市酿酒公司,B
信阳,浉河区,32.1399,114.0609,河南,2066A,审计局,B
周口,川汇区,33.6128,114.6613,河南,2067A,市环境监测站,B
周口,城乡一体化示范区,33.6347,114.6758,河南,2068A,周口师范,B
周口,经开区,33.5979,114.6546,河南,2069A,市运管处,B
晋城,城区,35.4936,112.8318,山西,2161A,白云商贸,B
晋城,城区,35.4887,112.8508,山西,2162A,市环保局,B
晋城,城区,35.4897,112.8676,山西,2163A,技术学院,B
朔州,朔城区,39.3522,112.4397,山西,2166A,平朔,B
朔州,朔城区,39.3617,112.4575,山西,2167A,朔唯,B
朔州,朔城区,39.3197,112.4258,山西,2168A,区政府,B
朔州,朔城区,39.3278,112.4072,山西,2169A,市环保局,B
晋中,榆次区,37.7067,112.7249,山西,2173A,南都小区,B
晋中,榆次区,37.6982,112.6991,山西,2174A,榆次区政府,B
运城,盐湖区,35.0147,110.9956,山西,2175A,运城中学,B
运城,盐湖区,35.0303,110.9686,山西,2178A,地区技校,B
运城,经济技术开发区,35.1147,111.0414,山西,2179A,空港新区,B
忻州,忻府区,38.4519,112.7383,山西,2181A,开发区,B
忻州,忻府区,38.4928,112.7003,山西,2182A,会展中心,B
吕梁,离石区,37.5211,111.1406,山西,2183A,环保局,B
吕梁,离石区,37.5136,111.1297,山西,2185A,自来水公司,B
乌海,海勃湾区,39.6973,106.8174,内蒙古,2187A,市林业局,B
通辽,科尔沁区,43.6801,122.2532,内蒙古,2191A,艺术职业学校,B
巴彦淖尔,临河区,40.761,107.4212,内蒙古,2195A,附二中,B
乌兰察布,集宁区,40.9923,113.1306,内蒙古,2197A,集宁新区,B
兴安盟,科尔沁右翼前旗,46.0741,121.9504,内蒙古,2201A,科右前旗环保局,B
锡林郭勒盟,锡林浩特市,43.9317,116.1042,内蒙古,2202A,市环保监测站,B
阿拉善盟,阿拉善左旗,38.8411,105.6985,内蒙古,2205A,蒙二幼,B
阿拉善盟,阿拉善左旗,38.8516,105.724,内蒙古,2206A,环保局新楼,B
阜新,细河区,41.998,121.6094,辽宁,2207A,工业园区,B
阜新,细河区,42.0279,121.6697,辽宁,2208A,长青街,B
阜新,细河区,42.0705,121.6673,辽宁,2209A,农业园区,B
阜新,细河区,42.0224,121.6717,辽宁,2210A,东苑,B
辽阳,宏伟区,41.1953,123.2,辽宁,2212A,宏伟区,B
辽阳,白塔区,41.2495,123.1683,辽宁,2213A,新华园,B
辽阳,太子河区,41.2991,123.149,辽宁,2215A,铁西工业园,B
铁岭,银州区,42.3022,123.8139,辽宁,2216A,汇工街西,B
铁岭,银州区,42.2923,123.8649,辽宁,2217A,水上乐园,B
铁岭,银州区,42.2867,123.8486,辽宁,2218A,银州路东段,B
朝阳,双塔区,41.5881,120.4318,辽宁,2220A,西梁,B
朝阳,双塔区,41.5648,120.4176,辽宁,2222A,八里堡,B
朝阳,龙城区,41.5969,120.3806,辽宁,2223A,农业园区,B
四平,铁西区,43.193,124.388,吉林,2226A,境园,B
辽源,龙山区,42.8845,125.1358,吉林,2227A,环保局,B
通化,东昌区,41.7325,125.9446,吉林,2230A,铁路,B
白山,浑江区,41.9171,126.4219,吉林,2231A,喜丰,B
松原,宁江区,45.1722,124.7965,吉林,2234A,江北,B
白城,洮北区,45.5725,122.8738,吉林,2236A,市环保局,B
延边州,延吉市,42.9108,129.5055,吉林,2238A,延边医院,B
延边州,延吉市,42.8881,129.3964,吉林,2239A,朝阳川镇医院,B
鸡西,鸡冠区,45.3001,130.9762,黑龙江,2240A,环保局,B
鹤岗,工农区,47.3416,130.2537,黑龙江,2244A,哈啤分公司,B
鹤岗,东山区,47.3388,130.3114,黑龙江,2246A,东山纸板厂,B
鹤岗,东山区,47.3382,130.1097,黑龙江,2247A,五号水库(对照点),B
双鸭山,尖山区,46.6211,131.1734,黑龙江,2249A,南小市,B
双鸭山,尖山区,46.6581,131.1605,黑龙江,2250A,环保局,B
双鸭山,岭东区,46.5678,131.1278,黑龙江,2251A,苗圃(对照点),B
伊春,伊美区,47.71994,128.86624,黑龙江,2252A,环保局,B
伊春,伊美区,47.7412,128.9102,黑龙江,2253A,电力嘉园,B
佳木斯,郊区,46.8028,130.2751,黑龙江,2255A,佳纺,B
佳木斯,东风区,46.8307,130.3995,黑龙江,2256A,发电厂,B
佳木斯,郊区,46.7975,130.3258,黑龙江,2257A,环保局,B
佳木斯,向阳区,46.8032,130.3648,黑龙江,2258A,十一中,B
七台河,新兴区,45.8751,131.0518,黑龙江,2262A,新一中(对照点),B
黑河,爱辉区,50.2524,127.4833,黑龙江,2263A,交通局,B
黑河,爱辉区,50.2341,127.5144,黑龙江,2264A,环保局,B
绥化,北林区,46.6365,126.9785,黑龙江,2266A,人和东街,B
大兴安岭地区,加格达奇区,50.4097,124.1069,黑龙江,2269A,科技局,B
蚌埠,蚌山区,32.939,117.396,安徽,2270A,工人疗养院,B
蚌埠,蚌山区,32.9427,117.3605,安徽,2271A,百货大楼,B
蚌埠,龙子湖区,32.8911,117.4185,安徽,2273A,蚌埠学院,B
蚌埠,禹会区,32.8977,117.3145,安徽,2275A,高新区,B
淮南,潘集区,32.7727,116.8305,安徽,2277A,潘集区政府,B
淮南,田家庵区,32.6524,117.0067,安徽,2278A,师范学院,B
淮南,谢家集区,32.5951,116.8569,安徽,2279A,谢家集区政府,B
淮南,凤台县,32.6201,116.6325,安徽,2281A,焦岗湖风景区管理处(对照点),B
淮北,相山区,33.975,116.8004,安徽,2282A,监测站,B
淮北,烈山区,33.9007,116.8091,安徽,2283A,烈山区政府,B
铜陵,铜官区,30.9412,117.8177,安徽,2285A,市第四中学,B
铜陵,铜官区,30.9273,117.8059,安徽,2286A,市公路局,B
铜陵,铜官区,30.9413,117.7807,安徽,2287A,市新民污水厂,B
铜陵,铜官区,30.8792,117.7439,安徽,2288A,市第九中学,B
铜陵,铜官区,30.97,117.8483,安徽,2290A,市职教基地,B
安庆,迎江区,30.5177,117.0809,安徽,2291A,环科院,B
安庆,大观区,30.5119,117.0331,安徽,2292A,马山宾馆,B
黄山,屯溪区,29.6963,118.2903,安徽,2295A,延安路89号,B
黄山,黄山区,30.2756,118.1371,安徽,2297A,黄山区政府5号楼,B
滁州,琅琊区,32.3153,118.3093,安徽,2298A,老年大学,B
阜阳,颍州区,32.8929,115.8277,安徽,2301A,市监测站,B
六安,裕安区,31.7643,116.4738,安徽,2308A,皖西学院,B
六安,金安区,31.7905,116.4996,安徽,2309A,朝阳厂,B
六安,金安区,31.7886,116.5567,安徽,2310A,开发区,B
亳州,谯城区,33.8399,115.8072,安徽,2311A,污水处理厂,B
亳州,谯城区,33.8518,115.7789,安徽,2312A,三国揽胜宫,B
池州,贵池区,30.6618,117.47,安徽,2314A,池州学院,B
宣城,宣州区,30.9454,118.7581,安徽,2316A,鳌峰子站,B
宣城,宣州区,30.9743,118.7385,安徽,2317A,敬亭山子站,B
莆田,荔城区,25.4325,119.0141,福建,2319A,荔城区仓后路,B
莆田,城厢区,25.4553,119.0015,福建,2320A,莆田市监测站,B
莆田,秀屿区,25.3215,119.1013,福建,2322A,秀屿区政府,B
三明,梅列区,26.2625,117.6211,福建,2324A,三钢,B
三明,梅列区,26.2714,117.635,福建,2325A,三明二中,B
南平,延平区,26.6489,118.1825,福建,2333A,南平铝业有限公司,B
南平,延平区,26.6272,118.1756,福建,2334A,南平七中,B
龙岩,新罗区,25.1033,117.0217,福建,2336A,龙岩市监测站,B
龙岩,新罗区,25.0661,117.0258,福建,2337A,闽西职业技术学院,B
景德镇,浮梁县,29.3867,117.3102,江西,2342A,王岗中学(对照点),B
景德镇,珠山区,29.2933,117.2117,江西,2343A,老干部活动中心,B
景德镇,昌江区,29.2789,117.1894,江西,2344A,兽医站,B
景德镇,昌江区,29.2617,117.1547,江西,2345A,台达陶瓷,B
萍乡,芦溪县,27.5002,114.0997,江西,2347A,武功山气象站(对照点),B
萍乡,安源区,27.6434,113.8385,江西,2348A,中医院,B
萍乡,安源区,27.6435,113.8676,江西,2350A,市环保局,B
萍乡,安源区,27.6198,113.866,江西,2351A,安源区政府,B
新余,高新开发区,27.8431,114.9886,江西,2353A,飞宇,B
新余,渝水区,27.8246,114.9231,江西,2354A,第二水厂,B
新余,渝水区,27.8036,114.9308,江西,2355A,市气象局,B
鹰潭,贵溪市,28.1136,116.9822,江西,2357A,龙虎山(对照点),B
鹰潭,月湖区,28.2642,117.0564,江西,2358A,新监测站,B
鹰潭,月湖区,28.2264,117.0222,江西,2360A,体育馆,B
鹰潭,高新区,28.2131,117.0017,江西,2361A,三川水表,B
赣州,章贡区,25.8664,114.9367,江西,2363A,地委,B
赣州,章贡区,25.8481,114.9461,江西,2364A,气象台,B
赣州,章贡区,25.8333,114.9322,江西,2365A,市图书馆,B
赣州,经济开发区,25.8471,114.8905,江西,2366A,华坚鞋城,B
吉安,吉州区,27.0803,114.9754,江西,2367A,红声器材厂,B
吉安,吉州区,27.1312,114.99,江西,2369A,市环境监测站,B
吉安,青原区,27.0968,115.0093,江西,2370A,青原区法院,B
宜春,袁州区,27.7844,114.3956,江西,2373A,市石油公司,B
宜春,袁州区,27.7914,114.3703,江西,2374A,市气象局,B
抚州,临川区,28.0814,116.2127,江西,2376A,桐源党溪(对照点),B
抚州,临川区,27.9831,116.3544,江西,2377A,市站,B
抚州,临川区,27.963,116.3565,江西,2378A,血防站,B
抚州,临川区,28.0007,116.3564,江西,2379A,采茶剧团,B
上饶,信州区,28.4436,117.9756,江西,2382A,市监测站,B
上饶,信州区,28.4628,117.9519,江西,2383A,凤凰光学,B
鹤壁,山城区,35.9019,114.17,河南,2385A,市监测站,B
鹤壁,淇滨区,35.7511,114.2956,河南,2386A,市交警支队,B
鹤壁,淇滨区,35.7306,114.2878,河南,2387A,迎宾馆,B
新乡,高新区,35.272,113.884,河南,2390A,开发区,B
新乡,红旗区,35.303,113.883,河南,2391A,环保东院,B
濮阳,华龙区,35.7636,115.0312,河南,2392A,环保局,B
濮阳,华龙区,35.7754,115.0866,河南,2395A,油田物探公司,B
许昌,魏都区,34.0159,113.8276,河南,2396A,监测站,B
许昌,开发区,33.9953,113.7906,河南,2398A,开发区,B
漯河,召陵区,33.5699,114.051,河南,2399A,三五一五工厂,B
漯河,源汇区,33.5698,114.0055,河南,2400A,漯河大学,B
漯河,源汇区,33.5698,114.0261,河南,2402A,广电局,B
南阳,宛城区,33.0086,112.5339,河南,2404A,瓦房庄,B
南阳,卧龙区,32.9735,112.5003,河南,2405A,汉画馆,B
南阳,城乡一体化示范区,32.9692,112.548,河南,2407A,理工学院,B
商丘,睢阳区,34.4045,115.6458,河南,2409A,粮食局,B
商丘,睢阳区,34.3948,115.6293,河南,2410A,睢阳区环保局,B
驻马店,驿城区,32.9656,114.0189,河南,2420A,市一纸厂,B
驻马店,开发区,33.015,114.0114,河南,2421A,市彩印厂,B
黄石,黄石港区,30.2313,115.0601,湖北,2423A,沈家营,B
黄石,西塞山区,30.2006,115.0817,湖北,2424A,陈家湾,B
黄石,下陆区,30.2092,115.0307,湖北,2427A,团城山,B
十堰,武当山特区,32.395,111.0419,湖北,2428A,武当山(对照点),B
十堰,茅箭区,32.6494,110.78,湖北,2429A,滨河新村,B
十堰,经济开发区,32.5714,110.8839,湖北,2431A,铁二处,B
襄阳,襄城区,32.0197,112.155,湖北,2432A,襄城运动路,B
襄阳,樊城区,32.0564,112.1392,湖北,2433A,樊城新华路,B
襄阳,襄阳高新技术产业开发区,32.1142,112.1825,湖北,2434A,高新管委会,B
襄阳,襄州区,32.0903,112.2106,湖北,2435A,襄州航空路,B
鄂州,鄂城区,30.3994,114.8938,湖北,2436A,市政府,B
荆门,东宝区,31.0481,112.2014,湖北,2439A,竹园小学,B
荆门,掇刀区,31.0386,112.2213,湖北,2441A,石化一小,B
孝感,孝南区,30.9285,113.9153,湖北,2443A,文化路,B
咸宁,咸安区,29.8142,114.3175,湖北,2447A,森林公园(对照点),B
咸宁,咸安区,29.8454,114.3107,湖北,2448A,市发改委,B
随州,曾都区,31.6908,113.3833,湖北,2452A,市林业局,B
随州,曾都区,31.7308,113.3983,湖北,2453A,市立交桥水厂,B
恩施州,恩施市,30.2798,109.4707,湖北,2455A,州电力总公司,B
衡阳,蒸湘区,26.9167,112.5003,湖南,2456A,原169医院(对照点),B
衡阳,石鼓区,26.9258,112.6194,湖南,2457A,衡阳化工总厂,B
衡阳,珠晖区,26.8956,112.6211,湖南,2458A,珠晖区环保局,B
衡阳,雁峰区,26.8733,112.6197,湖南,2459A,市委党校,B
衡阳,蒸湘区,26.9056,112.5664,湖南,2461A,真空机电公司,B
邵阳,大祥区,27.2317,111.4733,湖南,2463A,市一中,B
邵阳,双清区,27.2442,111.5283,湖南,2464A,市化工厂,B
邵阳,北塔区,27.2537,111.4503,湖南,2465A,市罐头厂,B
邵阳,大祥区,27.2272,111.4328,湖南,2466A,市环保局,B
益阳,赫山区,28.5808,112.3458,湖南,2468A,市环保局,B
益阳,赫山区,28.5531,112.3437,湖南,2469A,市特殊教育学校,B
益阳,资阳区,28.6047,112.3347,湖南,2470A,资阳区政务中心,B
益阳,赫山区,28.5819,112.3744,湖南,2471A,赫山环保分局,B
郴州,苏仙区,25.9061,113.0073,湖南,2472A,马头岭(对照点),B
郴州,北湖区,25.8226,113.0116,湖南,2473A,市职中,B
郴州,北湖区,25.8001,113.0161,湖南,2474A,兴隆步行街,B
郴州,苏仙区,25.8071,113.0383,湖南,2475A,市审计局,B
永州,零陵区,26.2081,111.6217,湖南,2477A,零陵南津渡(对照点),B
永州,冷水滩区,26.4214,111.6156,湖南,2478A,市环境监测站,B
永州,零陵区,26.2331,111.6236,湖南,2479A,零陵区环保局,B
永州,冷水滩区,26.4364,111.5992,湖南,2480A,永州市环保局,B
怀化,鹤城区,27.5721,109.5981,湖南,2482A,林科所(对照点),B
怀化,鹤城区,27.5444,109.9453,湖南,2483A,河西地税局,B
怀化,鹤城区,27.5578,109.9972,湖南,2485A,监测楼,B
怀化,鹤城区,27.583,110.0394,湖南,2486A,市委党校,B
娄底,娄星区,27.8901,111.9589,湖南,2487A,电视发射台(对照点),B
娄底,娄星区,27.725,111.9975,湖南,2488A,市监测站,B
娄底,娄星区,27.7314,112.0194,湖南,2489A,市委党校,B
娄底,娄星区,27.7569,111.9561,湖南,2490A,涟钢,B
湘西州,吉首市,28.3169,109.7325,湖南,2493A,州政府,B
湘西州,吉首市,28.2675,109.6958,湖南,2494A,吉首市计生局,B
梧州,万秀区,23.4794,111.3239,广西,2496A,云盖小学,B
梧州,龙圩区,23.4189,111.247,广西,2497A,龙圩,B
梧州,长洲区,23.4835,111.2711,广西,2498A,龙新,B
防城港,防城区,21.7731,108.3514,广西,2500A,防城镇政府,B
防城港,港口区,21.6414,108.3506,广西,2501A,大海花园,B
钦州,钦南区,21.9667,108.6236,广西,2502A,市环保站,B
钦州,钦南区,21.7431,108.5989,广西,2504A,港区一小,B
贵港,港北区,23.1478,109.568,广西,2505A,德智高中(对照点),B
贵港,港南区,23.0666,109.6047,广西,2506A,江南子站,B
贵港,港北区,23.0948,109.6014,广西,2507A,贵城子站,B
贵港,港北区,23.1065,109.5669,广西,2508A,荷城子站,B
玉林,玉州区,22.7019,110.1106,广西,2509A,寒山水库(对照点),B
玉林,玉州区,22.6411,110.1675,广西,2510A,市监测站,B
玉林,玉州区,22.6164,110.1433,广西,2511A,南江一中,B
百色,右江区,23.9011,106.6103,广西,2512A,市监测站,B
贺州,八步区,24.4078,111.5608,广西,2515A,政协大楼,B
河池,金城江区,24.6947,108.0497,广西,2517A,市环保站,B
来宾,兴宾区,23.7256,109.2203,广西,2520A,来冶招待所,B
崇左,江州区,22.3707,107.3702,广西,2522A,城南新区,B
广元,利州区,32.4535,105.8945,四川,2523A,黑石坡(对照点),B
广元,利州区,32.4444,105.821,四川,2524A,老城,B
遂宁,船山区,30.5678,105.5453,四川,2527A,石溪浩(对照点),B
遂宁,船山区,30.5366,105.5861,四川,2529A,行政中心,B
遂宁,船山区,30.4728,105.5918,四川,2530A,美宁食品公司,B
内江,东兴区,29.61,105.0703,四川,2531A,市监测站,B
内江,东兴区,29.5947,105.0717,四川,2532A,东兴区政府,B
内江,市中区,29.5817,105.0653,四川,2533A,内江二中,B
乐山,市中区,29.5844,103.7627,四川,2536A,牛耳桥,B
乐山,市中区,29.6006,103.7508,四川,2537A,市第三水厂,B
乐山,市中区,29.5664,103.7571,四川,2538A,市监测站,B
眉山,仁寿县,30.0478,104.0308,四川,2539A,黑龙滩水库(对照点),B
眉山,东坡区,30.0874,103.8416,四川,2540A,气象局,B
广安,广安区,30.4576,106.6303,四川,2544A,市委,B
广安,广安区,30.4663,106.6271,四川,2545A,友谊中学,B
达州,通川区,31.2827,107.5277,四川,2548A,达州职业技术学院(对照点),B
达州,通川区,31.2132,107.4988,四川,2550A,凤凰小区,B
达州,达川区,31.1986,107.5082,四川,2551A,达县机关宾馆,B
达州,通川区,31.2124,107.4644,四川,2552A,市政中心,B
雅安,雨城区,30.02,103.0475,四川,2554A,建安厂,B
雅安,雨城区,29.9775,102.9905,四川,2556A,川农大,B
资阳,雁江区,30.1372,104.6617,四川,2561A,莲花山(对照点),B
资阳,雁江区,30.1506,104.6356,四川,2562A,资阳中学,B
资阳,雁江区,30.1383,104.6295,四川,2563A,四三一厂,B
资阳,雁江区,30.1146,104.6463,四川,2564A,师范校,B
阿坝州,马尔康市,31.8896,102.2502,四川,2568A,马师校,B
凉山州,西昌市,27.8415,102.2721,四川,2572A,邛海宾馆,B
凉山州,西昌市,27.898,102.2625,四川,2573A,西昌市政府,B
凉山州,西昌市,27.8851,102.2685,四川,2574A,凉山州政府,B
凉山州,西昌市,27.8914,102.237,四川,2575A,长安,B
六盘水,钟山区,26.5917,104.83,贵州,2577A,黄土坡,B
六盘水,钟山区,26.5939,104.89,贵州,2578A,水钢,B
六盘水,钟山区,26.5894,104.8475,贵州,2579A,民中,B
铜仁,碧江区,27.7344,109.1839,贵州,2585A,铜仁卫校,B
毕节,七星关区,27.3125,105.2864,贵州,2587A,八中,B
毕节,七星关区,27.2944,105.31,贵州,2588A,师专,B
黔西南州,兴义市,25.0992,104.8811,贵州,2590A,坪东大道,B
保山,隆阳区,25.1328,99.1711,云南,2595A,市环保局,B
昭通,昭阳区,27.3736,103.7667,云南,2596A,监测站,B
丽江,古城区,26.8802,100.2497,云南,2599A,丽江古城,B
普洱,思茅区,22.8322,100.9817,云南,2602A,普洱第二中学,B
临沧,临翔区,23.8822,100.0894,云南,2604A,市气象局,B
楚雄州,楚雄市,25.0492,101.538,云南,2606A,市经济开发区,B
红河州,蒙自市,23.3993,103.3772,云南,2608A,污水处理厂,B
红河州,蒙自市,23.35,103.3861,云南,2609A,监测站,B
文山州,文山市,23.3594,104.2533,云南,2610A,州水务局,B
西双版纳州,景洪市,22.0019,100.7939,云南,2612A,景洪市江南,B
大理州,大理市,25.7054,100.1542,云南,2614A,大理市环境监测站,B
怒江州,泸水市,25.8417,98.8546,云南,2619A,泸水一中,B
昌都,卡若区,31.1273,97.1806,西藏,2622A,昌都监测站,B
山南,乃东区,29.2436,91.7706,西藏,2625A,山南人民医院,B
林芝,巴宜区,29.6616,94.3616,西藏,2633A,林芝人民医院,B
汉中,汉台区,33.1842,106.9893,陕西,2634A,汉川机床厂子校(对照点),B
汉中,汉台区,33.0706,107.0154,陕西,2635A,市监测站,B
汉中,汉台区,33.1138,107.0089,陕西,2636A,鑫源开发区,B
榆林,榆阳区,38.3344,109.7414,陕西,2638A,红石峡森林公园(对照点),B
榆林,榆阳区,38.2839,109.7289,陕西,2640A,实验中学,B
榆林,榆阳区,38.2478,109.7336,陕西,2641A,环保监测大楼,B
安康,汉滨区,32.6939,109.0281,陕西,2643A,安康市监测站,B
安康,汉滨区,32.6975,109.0072,陕西,2644A,汉滨区检察院,B
白银,白银区,36.5482,104.1465,甘肃,2648A,动力公司,B
天水,麦积区,34.5538,105.8945,甘肃,2651A,文化馆,B
武威,凉州区,37.9251,102.6201,甘肃,2652A,监测站,B
张掖,甘州区,38.9422,100.4154,甘肃,2655A,科委,B
平凉,崆峒区,35.5307,106.7021,甘肃,2657A,博物馆,B
酒泉,肃州区,39.7256,98.4989,甘肃,2659A,富康家世界子站,B
庆阳,西峰区,35.7067,107.6364,甘肃,2662A,市环保局,B
定西,安定区,35.5934,104.6194,甘肃,2664A,南峰招待所(原起重机厂),B
临夏州,临夏市,35.6057,103.2417,甘肃,2668A,州委党校,B
甘南州,合作市,34.9841,102.9099,甘肃,2669A,监测站,B
海北州,海晏县,36.9639,100.9048,青海,2671A,海晏县西海镇,B
黄南州,同仁市,35.5102,102.0199,青海,2672A,同仁县隆务镇,B
海南州,共和县,36.2866,100.6188,青海,2673A,共和县恰卜恰镇,B
果洛州,玛沁县,34.4714,100.2561,青海,2674A,玛沁县大武镇,B
玉树州,玉树市,33.0014,97.0,青海,2675A,玉树县结古镇,B
海西州,德令哈市,37.3753,97.3731,青海,2676A,德令哈市,B
吴忠,利通区,37.9648,106.1532,宁夏,2677A,教育园区,B
吴忠,利通区,37.9956,106.1856,宁夏,2679A,新区二泵站,B
中卫,沙坡头区,37.5002,105.1971,宁夏,2682A,环保局站,B
固原,原州区,36.0022,106.2792,宁夏,2684A,监测站,B
固原,原州区,36.0211,106.2375,宁夏,2685A,新区,B
吐鲁番,高昌区,42.9559,89.1673,新疆,2687A,地区环保局,B
哈密,伊州区,42.8172,93.5128,新疆,2688A,地区监测站,B
昌吉州,昌吉市,44.0297,87.2717,新疆,2692A,新区政务中心,B
博尔塔拉州,博乐市,44.8969,82.0806,新疆,2694A,市环保局,B
阿克苏地区,阿克苏市,41.1694,80.292,新疆,2695A,电视台,B
克孜勒苏州,阿图什市,39.7142,76.1454,新疆,2697A,市人民政府,B
喀什地区,喀什市,39.4467,76.0072,新疆,2698A,巡警大队,B
喀什地区,喀什市,39.4694,75.9755,新疆,2699A,吾办,B
伊犁州,伊宁市,43.9174,81.2996,新疆,2704A,新政府片区,B
伊犁州,伊宁市,43.941,81.3364,新疆,2705A,第二水厂,B
塔城地区,塔城市,46.7432,82.9994,新疆,2706A,东门外小游园,B
阿勒泰地区,阿勒泰市,47.8517,88.1264,新疆,2708A,市站,B
石河子,石河子市,44.3075,86.0697,新疆,2710A,阳光学校,B
五家渠,五家渠市,44.1756,87.5475,新疆,2711A,农水大厦,B
攀枝花,东区,26.567,101.7227,四川,2835A,四十中小,B
长治,潞州区,36.1911,113.1569,山西,2845A,德盛苑,B
广州,天河区,23.1322,113.3221,广东,2846A,体育西,B
天津,滨海新区,39.2474,117.7918,天津,2858A,河西一经路(启用150702),B
天津,津南区,38.9846,117.3747,天津,2859A,津沽路(启用150702),B
天津,南开区,39.0845,117.1589,天津,2860A,宾水西道(启用150702),B
石家庄,长安区,38.0378,114.5481,河北,2862A,22中南校区(启用150703),B
晋中,榆次区,37.6828,112.7195,山西,2865A,榆次三中,B
吉林,九站经济技术开发区,43.953,126.4739,吉林,2868A,九站,B
扬州,广陵区,32.4155,119.447,江苏,2869A,五台山医院(启用161107),B
镇江,润州区,32.1873,119.4424,江苏,2870A,市疾控中心,B
宁波,鄞州区,29.9017,121.6147,浙江,2871A,万里国际学校,B
嘉兴,南湖区,30.7525,120.7846,浙江,2872A,南湖区残联,B
湖州,吴兴区,30.8955,120.0875,浙江,2873A,仁皇山新区(启用150915),B
阜阳,颍州区,32.8892,115.784,安徽,2875A,阜阳职业技术学院,B
潍坊,坊子区,36.6523,119.1641,山东,2877A,坊子邮政,B
聊城,东昌府区,36.4343,116.0072,山东,2878A,聊大东校,B
成都,青羊区,30.6558,104.0219,四川,2880A,大石西路,B
黔东南州,凯里市,26.5311,107.8908,贵州,2881A,凯里学院,B
玉溪,红塔区,24.3703,102.5389,云南,2882A,玉溪一中(启用161222),B
嘉峪关,市区,39.7978,98.2672,甘肃,2884A,酒钢宾馆,B
陇南,武都区,33.3826,104.9339,甘肃,2885A,滨江中学,B
淮南,大通区,32.6531,117.0566,安徽,2894A,经济技术开发区消防队,B
沈阳,铁西区,41.7347,123.2444,辽宁,2897A,沈辽西路,B
沈阳,沈北新区,41.9086,123.5953,辽宁,2900A,裕农路,B
广安,广安区,30.4865,106.6351,四川,2902A,北辰小学(启用160101),B
巴中,巴州区,31.8794,106.7677,四川,2914A,苏山坪(对照点),B
廊坊,广阳区,39.5453,116.7022,河北,2919A,河北工业大学(启用160601),B
绍兴,越城区,30.0003,120.5483,浙江,2921A,树下王站(启用160701),B
天津,和平区,39.1067,117.1941,天津,2922A,大理道(启用160601),B
银川,金凤区,38.4418,106.2266,宁夏,2924A,水乡路(启用160615),B
银川,兴庆区,38.4842,106.2757,宁夏,2925A,上海东路(启用160703),B
银川,西夏区,38.497,106.1015,宁夏,2926A,文昌北街(启用160703),B
黄冈,黄州区,30.4519,114.8858,湖北,2929A,红卫路(启用161109),B
宿迁,宿城区,33.965,118.283,江苏,2996A,市供电局(启用161107),B
泰州,高港区,32.3289,119.8767,江苏,2997A,王营(启用161024),B
连云港,连云区,34.6972,119.3581,江苏,3000A,德源药业(启用161021),B
常州,新北区,31.8174,119.9805,江苏,3002A,行政中心(启用161026),B
常州,武进区,31.7748,120.0522,江苏,3003A,经开区(启用161026),B
盐城,亭湖区,33.3663,120.1544,江苏,3004A,宝龙广场(启用161025),B
徐州,鼓楼区,34.29,117.1814,江苏,3005A,鼓楼区政府(启用161026),B
徐州,铜山区,34.1781,117.1694,江苏,3006A,铜山区招生办(启用161026),B
连云港,赣榆区,34.844,119.178,江苏,3007A,新城一中(新增200108),B
连云港,连云区,34.7519,119.3608,江苏,3008A,胡沟管理处(启用161021),B
连云港,海州区,34.5911,119.1478,江苏,3009A,矿山设计院(启用161021),B
常州,钟楼区,31.7964,119.9025,江苏,3010A,钟楼(启用161026),B
荆门,东宝区,31.0362,112.1849,湖北,3012A,西山林语,B
重庆,九龙坡区,29.5346,106.4958,重庆,3014A,歇台子(启用161118),B
重庆,沙坪坝区,29.5728,106.4037,重庆,3015A,龙井湾(启用161118),B
重庆,巴南区,29.4153,106.5507,重庆,3016A,龙洲湾(启用161119),B
临汾,尧都区,36.1014,111.505,山西,3018A,唐尧大酒店(启用161122),B
濮阳,经开区,35.7668,115.0,河南,3021A,濮水河管理处(启用161121),B
清远,清城区,23.6344,113.0477,广东,3025A,技师学院(启用161222),B
自贡,贡井区,29.3427,104.72,四川,3027A,青杠林路(启用170114),B
自贡,自流井区,29.3627,104.776,四川,3028A,檀木林体育馆(启用170304),B
乌鲁木齐,乌鲁木齐县,43.4569,87.4651,新疆,3033A,培训基地(启用170210),B
兴安盟,乌兰浩特市,46.0707,122.0931,内蒙古,3035A,北滨河(启用170221),B
东营,经济开发区,37.4338,118.6904,山东,3036A,开发区管委会(启用170301),B
三门峡,湖滨区,34.7829,111.1911,河南,3039A,三门峡市第一小学(启用170307),B
商洛,商州区,33.8471,109.9643,陕西,3045A,商州区中学(启用170905),B
南昌,青云谱区,28.6062,115.9084,江西,3046A,机电学校(启用170322),B
天津,滨海新区,39.1495,117.3916,天津,3051A,西四道(启用170426),B
新乡,红旗区,35.2847,113.9194,河南,3054A,市委党校(启用170505),B
赤峰,元宝山区,42.0353,119.2658,内蒙古,3058A,银河街(启用170524),B
济南,莱芜区,36.2049,117.7161,山东,3059A,泰兴公司(启用170519),B
呼伦贝尔,海拉尔区,49.1577,119.7512,内蒙古,3061A,国华电力东(启用170601),B
济南,莱芜区,36.2171,117.6867,山东,3064A,莱芜战役纪念馆(启用170603),B
甘孜州,康定市,29.9972,101.9533,四川,3065A,州环保局(启用170614),B
德州,德城区,37.4379,116.2721,山东,3066A,九衢泉纯净水厂(启用170613),B
安顺,西秀区,26.2564,105.9439,贵州,3124A,金钟山(启用171013),B
安顺,西秀区,26.2481,105.8983,贵州,3125A,娄家坡(启用171013),B
那曲,色尼区,31.4797,92.0506,西藏,3128A,那曲会议中心(启用170919),B
张家口,桥东区,40.7993,114.879,河北,3131A,烟厂(启用171012),B
秦皇岛,海港区,39.9392,119.6037,河北,3132A,文明里(启用171013),B
重庆,渝中区,29.5654,106.5468,重庆,3133A,上清寺(启用170928),B
成都,龙泉驿区,30.5589,104.2725,四川,3136A,龙泉驿区区政府(启用171027),B
常德,鼎城区,28.9881,111.6892,湖南,3139A,鼎城区玉霞(启用171130),B
常德,武陵区,29.0531,111.6625,湖南,3140A,武陵区长庚(启用171201),B
安阳,文峰区,36.0878,114.3922,河南,3141A,信访局(启用171207),B
开封,龙亭区,34.8106,114.3438,河南,3147A,龙亭公园(启用180109),B
眉山,东坡区,30.0564,103.8291,四川,3148A,区人社局(启用180111),B
黄石,黄石经济技术开发区,30.1578,115.0235,湖北,3149A,笔架山北路,B
宜春,袁州区,27.8097,114.375,江西,3151A,宜春学院北校区(181229启用),B
武汉,东湖高新技术开发区,30.4908,114.3877,湖北,3153A,民族大道182号(启用180213),B
扬州,广陵区,32.3942,119.4686,江苏,3164A,广陵建设局(启用180626),B
咸阳,秦都区,34.2969,108.6594,陕西,3165A,两寺渡(启用180627),B
焦作,山阳区,35.2071,113.2725,河南,3169A,太极体育中心(启用180720),B
商丘,梁园区,34.4465,115.6071,河南,3171A,梁园区档案局(20190220启用),B
安庆,经开区,30.5351,117.0598,安徽,3173A,市人大(启用180816),B
昆明,官渡区,25.0119,102.7494,云南,3179A,官渡区博物馆(180930启用),B
迪庆州,香格里拉市,27.8094,99.7136,云南,3180A,质量技术监督局(20180930启用),B
巴中,巴州区,31.8545,106.7656,四川,3182A,丽阳花园(启用181029),B
兰州,安宁区,36.1058,103.7158,甘肃,3186A,教育港(启用181115),B
宿州,埇桥区,33.666,116.9509,安徽,3187A,远航博物馆(20181204启用),B
衡水,桃城区,37.7217,115.6683,河北,3188A,市城管局(20181124启用),B
九江,濂溪区,29.6994,116.0254,江西,3190A,外国语学校(20181128启用),B
宿迁,宿豫区,33.9447,118.3225,江苏,3191A,宿豫区政府(20181206启用),B
阿里地区,噶尔县,32.5028,80.0903,西藏,3192A,阿里地区藏医院(20181130启用),B
荆州,开发区,30.3122,112.2747,湖北,3194A,管委会,B
扬州,邗江区,32.3972,119.3633,江苏,3195A,市体育局(181219启用),B
平顶山,湛河区,33.73,113.3025,河南,3204A,规划局(20190304启用),B
新余,渝水区,27.807,114.9149,江西,3206A,新钢沁园村(20190301启用),B
滁州,琅琊区,32.3038,118.3118,安徽,3207A,市政府原办公楼(20190308启用),B
宁德,蕉城区,26.6562,119.5231,福建,3209A,宁德一中(20190319启用),B
开封,顺河回族区,34.7964,114.3644,河南,3210A,汴京公园(20190322启用),B
漳州,芗城区,24.5157,117.6569,福建,3216A,漳州党校(20190503启用),B
池州,贵池区,30.6617,117.4918,安徽,3237A,展览馆(190815启用),B
兰州,七里河区,36.0842,103.7439,甘肃,3241A,百合公园(新增191227),B
兰州,榆中县,35.998,103.9611,甘肃,3242A,和平(新增200315),B
,新区,36.533,103.6633,,3245A,新区管委会(新增191218),B
,新区,36.4789,103.6975,,3246A,舟曲中学(新增200310),B
上海,宝山区,31.3322,121.4316,上海,3265A,宝山庙行(新增200109),B
上海,崇明区,31.4662,121.8791,上海,3266A,崇明上实东滩(新增191229),B
上海,嘉定区,31.2838,121.3162,上海,3268A,嘉定南翔(新增191229),B
上海,金山区,30.7456,121.3359,上海,3269A,金山新城(新增200113),B
上海,闵行区,31.0739,121.4996,上海,3270A,闵行浦江(新增200109),B
上海,青浦区,31.1663,121.2886,上海,3271A,青浦徐泾(新增191229),B
上海,松江区,31.0378,121.2186,上海,3272A,松江图书馆(新增200109),B
上海,长宁区,31.2059,121.3902,上海,3273A,长宁仙霞(新增200107),B
上海,浦东新区,31.0507,121.7965,上海,3274A,浦东惠南(新增191229),B
北京,延庆区,40.4529,115.9718,北京,3281A,延庆夏都(145),B
大同,平城区,40.0597,113.3397,山西,3282A,大同市卫生学校(145),B
乌海,海勃湾区,39.7274,106.813,内蒙古,3284A,海北新区(新增200607),B
乌兰察布,集宁区,40.9509,113.1376,内蒙古,3285A,北京八中(新增200602),B
赤峰,红山区,42.3147,118.9359,内蒙古,3286A,桥北物流园区(新增200522),B
徐州,贾汪区,34.4422,117.4754,江苏,3288A,大泉街道(新增200422),B
苏州,吴中区,31.3188,120.743,江苏,3289A,方洲路(新增200101),B
苏州,吴中区,31.2774,120.5031,江苏,3290A,木渎中学(新增200110),B
南通,通州区,32.062,121.067,江苏,3291A,通州监测站(新增200116),B
扬州,江都区,32.4222,119.5653,江苏,3294A,引江管理处(新增191231),B
泰州,姜堰区,32.5099,120.1259,江苏,3295A,姜堰区政府广场(新增200107),B
广州,从化区,23.5491,113.5717,广东,3298A,从化街口(新增200102),B
广州,白云区,23.3692,113.3472,广东,3299A,白云竹料(新增200102),B
广州,白云区,23.237,113.2981,广东,3300A,白云嘉禾(新增200103),B
广州,番禺区,23.0483,113.3942,广东,3302A,番禺大学城(新增200104),B
广州,南沙区,22.8168,113.4922,广东,3303A,南沙黄阁(新增191231),B
广州,南沙区,22.7896,113.5342,广东,3304A,南沙街(新增200102),B
深圳,福田区,22.559,114.0731,广东,3305A,莲花(新增191224),B
深圳,龙华区,22.6198,114.0261,广东,3306A,民治(新增191224),B
深圳,龙岗区,22.6451,114.1871,广东,3307A,横岗(新增191224),B
珠海,金湾区,22.0569,113.3494,广东,3308A,金湾(新增191225),B
江门,江海区,22.5647,113.1075,广东,3311A,江海富民(新增191229),B
肇庆,高要区,23.0166,112.4575,广东,3313A,高要湖西(新增191223),B
惠州,惠阳区,22.8134,114.4338,广东,3314A,惠阳秋长(新增200109),B
梅州,梅江区,24.2991,116.1233,广东,3315A,梅龙(新增191226),B
阳江,江城区,21.8947,111.9765,广东,3317A,两阳中学(新增200109),B
清远,清新区,23.7403,112.9903,广东,3318A,清新太和(新增191229),B
东莞,市区,23.0381,113.7338,广东,3319A,万江金泰(新增191223),B
揭阳,揭东区,23.5699,116.403,广东,3320A,曲溪(新增200108),B
张家口,崇礼区,40.9724,115.2773,河北,3323A,青少年活动中心(145),B
天津,武清区,39.3828,117.0365,天津,3325A,雍阳西道(145),B
天津,西青区,39.0605,117.0296,天津,3326A,辛老路(145),B
天津,静海区,38.9375,116.9638,天津,3327A,地纬路(145),B
芜湖,鸠江区,31.3707,118.4209,安徽,3328A,市气象局(145),B
淮南,田家庵区,32.5893,117.0108,安徽,3329A,山南新区(145),B
滁州,南谯区,32.2634,118.3267,安徽,3331A,图书馆(新增200429),B
池州,贵池区,30.6243,117.5038,安徽,3334A,第十二中学(新增200413),B
焦作,马村区,35.2641,113.3137,河南,3335A,马村街道办(145),B
许昌,东城区,34.0442,113.8614,河南,3337A,许昌学院(145),B
许昌,示范区,34.0823,113.843,河南,3338A,芙蓉广场(145),B
洛阳,伊滨区,34.6326,112.6005,河南,3340A,伊滨(145),B
洛阳,洛龙区,34.6332,112.4951,河南,3341A,中移产业园(145),B
伊春,乌翠区,47.4346,128.4741,黑龙江,3342A,中心小学(新增200316),B
伊春,乌翠区,47.7369,128.6871,黑龙江,3343A,检察院(新增200316),B
伊春,友好区,47.8474,128.8431,黑龙江,3344A,双子河社区(新增200107),B
七台河,茄子河区,45.7879,131.0577,黑龙江,3345A,中波台(新增200115),B
重庆,开州区,31.1628,108.3872,重庆,3346A,安康(新增191231),B
重庆,永川区,29.3569,105.9017,重庆,3347A,北山路(新增191229),B
重庆,潼南区,30.1946,105.839,重庆,3348A,春阳街(新增200111),B
重庆,梁平区,30.6758,107.7983,重庆,3349A,人民东路(新增191230),B
重庆,綦江区,29.0244,106.6479,重庆,3350A,滩子口(新增191224),B
重庆,大足区,29.7076,105.7167,重庆,3351A,棠香(新增191228),B
重庆,长寿区,29.8617,107.0732,重庆,3352A,桃源西路(新增191229),B
重庆,涪陵区,29.7287,107.3535,重庆,3353A,迎宾大道(新增191229),B
重庆,黔江区,29.5081,108.815,重庆,3354A,舟白(新增200109),B
重庆,万州区,30.8426,108.3679,重庆,3355A,周家坝(新增191231),B
重庆,万州区,30.7555,108.4319,重庆,3356A,百安坝(新增191230),B
成都,金牛区,30.6931,104.0106,四川,3357A,金博路(新增191230),B
成都,天府新区,30.5225,104.0578,四川,3359A,华阳(新增191229),B
乐山,市中区,29.5628,103.7311,四川,3361A,理工大学(新增191227),B
青岛,即墨区,36.4034,120.5014,山东,3362A,即墨2号(新增200331),B
淄博,张店区,36.8372,117.9883,山东,3363A,新区(145),B
枣庄,薛城区,34.8103,117.3152,山东,3364A,市环保局(新增191216),B
东营,垦利区,37.565,118.5719,山东,3365A,垦利区生态环境分局(新增200317),B
烟台,高新区,37.4336,121.5206,山东,3366A,中国农业大学(145),B
潍坊,高新区,36.6872,119.1977,山东,3368A,高新实验学校(145),B
临沂,罗庄区,35.0215,118.3564,山东,3370A,十里堡居委(145),B
德州,经济开发区,37.4094,116.3572,山东,3372A,太阳城中学(145),B
昆明,呈贡区,24.8336,102.8017,云南,3375A,青年(大学生)创业园(新增191223),B
曲靖,麒麟区,25.462,103.7947,云南,3376A,南苑二区(新增200316),B
曲靖,麒麟区,25.5261,103.7444,云南,3377A,曲靖师范学院(新增200111),B
营口,鲅鱼圈区,40.2278,122.1139,辽宁,3379A,鲅鱼圈市民活动中心(新增191224),B
襄阳,襄阳高新技术产业开发区,32.1008,112.1214,湖北,3397A,高新台子湾,B
黄冈,黄州区,30.4445,114.9136,湖北,3398A,市林业局,B
衡阳,珠晖区,26.882,112.6703,湖南,3399A,师范学院(145),B
北海,银海区,21.4415,109.1911,广西,3400A,龙潭自来水厂(新增191224),B
南宁,邕宁区,22.7618,108.4834,广西,3401A,红星社区(新增191227),B
柳州,鱼峰区,24.3996,109.5422,广西,3402A,市二中(新增191230),B
桂林,临桂区,25.2381,110.1764,广西,3403A,创业大厦(新增200106),B
钦州,钦南区,21.9633,108.5959,广西,3404A,北职校(新增191227),B
百色,右江区,23.8798,106.6085,广西,3406A,祈福高中(新增200114),B
绍兴,越城区,29.9361,120.5683,浙江,3408A,绍兴中专(新增200113),B
绍兴,柯桥区,30.0861,120.4906,浙江,3409A,柯桥区政府(新增200106),B
绍兴,上虞区,30.0249,120.8752,浙江,3410A,重华小学(新增200106),B
绍兴,上虞区,30.0137,120.8369,浙江,3411A,上虞中学(新增200402),B
上饶,广丰区,28.4401,118.1953,江西,3413A,广丰区教体局(新增191231),B
,桑海经济技术开发区,28.932,115.8347,,3414A,桑海产业园(新增191231),B
潍坊,高新区,36.7149,119.1755,山东,3416A,潍坊学院(145),B
北京,平谷区,40.1465,117.0709,北京,3417A,平谷新城(145),B
北京,密云区,40.4095,116.8336,北京,3418A,密云新城(145),B
包头,九原区,40.6261,109.9447,内蒙古,3419A,包头市委党校(新增191226),B
乌兰察布,集宁区,40.9779,113.1775,内蒙古,3421A,市委党校(新增200313),B
南京,江宁区,31.9198,118.8436,江苏,3422A,江宁彩虹桥(新增200305),B
南京,溧水区,31.6494,119.0138,江苏,3423A,溧水永阳(新增200421),B
南京,高淳区,31.3302,118.879,江苏,3424A,高淳老职中(新增200515),B
苏州,吴江区,31.1733,120.624,江苏,3425A,越秀幼儿园(新增200109),B
淮安,洪泽区,33.2894,118.8755,江苏,3426A,新华书店(新增200117),B
南京,六合区,32.3578,118.8554,江苏,3427A,六合雄州(新增200515),B
无锡,经开区,31.4753,120.3142,江苏,3428A,华庄(145),B
常州,武进区,31.7066,119.8598,江苏,3429A,武进经发区(新增200107),B
苏州,相城区,31.416,120.6505,江苏,3431A,高铁新城(新增200101),B
南通,崇川区,31.9883,120.9348,江苏,3432A,环境教育馆(新增200112),B
连云港,海州区,34.6539,119.2413,江苏,3434A,工贸学校(新增200331),B
盐城,大丰区,33.205,120.4279,江苏,3436A,大丰高级中学(新增191231),B
乌鲁木齐,达坂城区,43.3658,88.3118,新疆,3437A,达坂城区环保局(新增200108),B
乌鲁木齐,米东区,43.8801,87.6162,新疆,3438A,红光山片区(新增200114),B
乌鲁木齐,水磨沟区,43.8004,87.7024,新疆,3439A,新师大温泉校区(新增200109),B
乌鲁木齐,头屯河区,43.8411,87.4921,新疆,3440A,大绿谷(新增200104),B
石河子,石河子市,44.2331,86.047,新疆,3442A,南区管委会(新增200102),B
广州,花都区,23.5544,113.2902,广东,3443A,花都梯面(新增200103),B
汕头,潮南区,23.2684,116.454,广东,3444A,潮南峡山(新增191226),B
广州,从化区,23.7478,113.7858,广东,3445A,从化良口(新增200103),B
广州,增城区,23.2614,113.8051,广东,3446A,增城荔城(新增200103),B
深圳,坪山区,22.7151,114.3551,广东,3447A,坪山(新增191225),B
珠海,香洲区,22.1163,113.5433,广东,3448A,横琴(新增191226),B
江门,新会区,22.4667,113.05,广东,3449A,新会银湖(新增191228),B
惠州,惠阳区,22.775,114.6517,广东,3452A,大亚湾霞涌(新增200104),B
中山,南区,22.478,113.3528,广东,3454A,中山南区(新增191229),B
清远,清城区,23.7198,113.076,广东,3455A,清城东城(新增191230),B
唐山,曹妃甸区,39.2762,118.4359,河北,3457A,冀东油田职工医院(新增191227),B
邯郸,肥乡区,36.5593,114.7895,河北,3458A,香泉濮院小区(新增191230),B
衡水,冀州区,37.5491,115.5989,河北,3459A,地表水厂(新增191230),B
天津,蓟州区,40.0583,117.4067,天津,3460A,北环路(145),B
天津,宝坻区,39.7169,117.3045,天津,3461A,建设路(145),B
天津,宁河区,39.3521,117.8199,天津,3462A,滨水东路(145),B
宿州,埇桥区,33.591,116.9708,安徽,3463A,社会福利中心(145),B
合肥,瑶海区,31.9147,117.3803,安徽,3464A,高教基地(新增191231),B
芜湖,鸠江区,31.3225,118.4781,安徽,3465A,清苑社区(145),B
阜阳,颍州区,32.8613,115.7901,安徽,3468A,市规划展馆(新增200109),B
阜阳,颍东区,32.9183,115.836,安徽,3469A,枣园社区(新增200204),B
宣城,宣州区,30.9141,118.7724,安徽,3470A,夏渡子站(新增200601),B
郑州,惠济区,34.86776,113.61656,河南,3471A,惠济区政府(145),B
开封,龙亭区,34.8306,114.2485,河南,3473A,技师学院(145),B
新乡,牧野区,35.3327,113.9135,河南,3476A,河师大(145),B
焦作,中站区,35.2539,113.1656,河南,3477A,中站许衡医院(145),B
漯河,郾城区,33.5722,113.9806,河南,3478A,市图书馆(145),B
漯河,召陵区,33.5966,114.1036,河南,3479A,召陵区卫健委(145),B
伊春,伊美区,47.6417,129.1368,黑龙江,3480A,美溪镇(新增200316),B
大庆,萨尔图区,46.6272,125.1272,黑龙江,3481A,萨区政府监测点(新增200102),B
重庆,武隆区,29.3277,107.7541,重庆,3482A,芙蓉中路(新增191228),B
重庆,黔江区,29.5368,108.7661,重庆,3483A,西山(新增200109),B
重庆,江津区,29.32,106.2628,重庆,3484A,行政中心(新增200111),B
重庆,南川区,29.1608,107.0944,重庆,3485A,高寺路(新增200103),B
四平,经开区,43.1411,124.4036,吉林,3486A,植物园(新增200430),B
成都,龙泉驿区,30.5319,104.2394,四川,3487A,车城东七路(新增191227),B
成都,青白江区,30.7453,104.3853,四川,3488A,青白江技师分院(新增191230),B
成都,天府新区,30.4072,104.0789,四川,3489A,科学城(新增191228),B
泸州,纳溪区,28.7703,105.3617,四川,3490A,纳溪区环保局(新增191226),B
绵阳,涪城区,31.5322,104.69,四川,3491A,西科大附属小学(新增191230),B
绵阳,安州区,31.5343,104.5648,四川,3492A,安州区旅游局(新增191231),B
济南,济阳区,36.9782,117.1673,山东,3494A,济阳区政府(145),B
临沂,兰山区,35.1084,118.3604,山东,3496A,南坊新区(145),B
济宁,兖州区,35.5593,116.8249,山东,3501A,服务中心(145),B
泰安,泰山区,36.2275,117.1812,山东,3502A,国网新校(145),B
泰安,岱岳区,36.2018,117.0313,山东,3503A,交通技校(145),B
泰安,高新区,36.13,117.0829,山东,3504A,山东第一医科大学(145),B
威海,临港区,37.3414,122.1379,山东,3505A,临港区管委会(新增200107),B
日照,高新区,35.4625,119.5328,山东,3507A,职业技术学院(145),B
德州,陵城区,37.3319,116.5652,山东,3511A,陵城艺术中心(145),B
聊城,东昌府区,36.4361,116.0445,山东,3513A,九州社区(145),B
滨州,经济开发区,37.3553,117.9378,山东,3515A,开发区一中(145),B
滨州,沾化区,37.694,118.0917,山东,3516A,金海六路(145),B
石嘴山,大武口区,38.9836,106.3495,宁夏,3520A,妇女儿童医院(新增200119),B
石嘴山,惠农区,39.2069,106.7492,宁夏,3521A,石大公路(新增200424),B
固原,原州区,35.9959,106.2177,宁夏,3522A,原州区十五小(145),B
银川,兴庆区,38.3856,106.5105,宁夏,3523A,滨河新区(新增200112),B
西安,鄠邑区,34.1164,108.6116,陕西,3524A,文体局(新增200102),B
咸阳,秦都区,34.4078,108.6396,陕西,3525A,奥体中心(新增200102),B
福州,长乐区,25.9664,119.5189,福建,3526A,吴航(新增200117),B
厦门,集美区,24.5688,118.0958,福建,3527A,集美中学(新增200106),B
厦门,同安区,24.7245,118.1493,福建,3528A,同安二实小(新增200318),B
泉州,丰泽区,24.9264,118.6333,福建,3529A,城华南路(新增200110),B
漳州,芗城区,24.5314,117.6296,福建,3530A,西洋坪路(新增200103),B
桂林,雁山区,25.1253,110.296,广西,3531A,旅游学院(新增200120),B
玉林,福绵区,22.5893,110.0527,广西,3533A,福绵环保局(新增191223),B
贺州,平桂区,24.4553,111.4744,广西,3534A,西湾(新增200102),B
遵义,播州区,27.5919,106.8547,贵州,3536A,第十二小学(新增191223),B
黔南州,都匀市,26.2978,107.5175,贵州,3538A,沙坝(新增200107),B
三亚,海棠区,18.3443,109.7348,海南,3540A,君悦子站(新增200108),B
儋州,儋州市,19.5167,109.5726,海南,3541A,第一中学子站(新增200211),B
上海,奉贤区,30.925,121.4891,上海,3544A,奉贤南桥新城(新增200108),B
宜昌,猇亭区,30.552,111.4606,湖北,3546A,猇亭区张家湾站,B
荆门,漳河新区,31.0138,112.1632,湖北,3547A,龙泉中学南校,B
恩施州,恩施市,30.3772,109.5061,湖北,3549A,龙凤新区,B
昆明,官渡区,24.9786,102.7997,云南,3550A,昆明学院(新增191222),B
昆明,晋宁区,24.6736,102.5967,云南,3551A,晋宁区生态环境分局(新增191223),B
昆明,西山区,24.9856,102.6678,云南,3552A,云天化总部(新增191226),B
杭州,富阳区,30.0494,119.9464,浙江,3557A,镇二中(新增200113),B
杭州,临安区,30.2367,119.7183,浙江,3558A,市府大楼(新增200113),B
绍兴,柯桥区,30.0415,120.4722,浙江,3560A,柯桥妇保(新增200114),B
温州,瓯海区,27.9251,120.6985,浙江,3561A,茶山(新增191227),B
台州,黄岩区,28.6681,121.2568,浙江,3564A,台州科技职业学院(145),B
大同,云冈区,40.1122,113.1367,山西,3565A,云冈站(145),B
大同,新荣区,40.2556,113.1186,山西,3566A,图书馆(145),B
大同,云州区,40.0461,113.5931,山西,3567A,区一中(新增200525),B
长治,潞城区,36.3489,113.235,山西,3570A,潞城四中(145),B
朔州,平鲁区,39.53,112.2931,山西,3571A,一水厂(145),B
石家庄,栾城区,37.9063,114.6611,河北,3572A,栾城区政府,B
石家庄,藁城区,38.023,114.8433,河北,3573A,藁城实验学校,B
石家庄,井陉矿区,38.0706,114.0689,河北,3574A,井陉矿区区委大楼(145),B
唐山,丰南区,39.5809,118.0886,河北,3575A,正泰大街热力站,B
唐山,古冶区,39.7404,118.4514,河北,3577A,金山小学,B
唐山,开平区,39.6407,118.288,河北,3578A,政务服务中心,B
邯郸,永年区,36.779,114.5124,河北,3579A,永年区实验高中(新增200517),B
保定,满城区,38.9434,115.3228,河北,3581A,满城区生态环境分局,B
保定,清苑区,38.771,115.4965,河北,3582A,清苑区第二中学,B
保定,徐水区,39.0255,115.6521,河北,3583A,徐水物探局,B
雄安新区,容城县,39.0341,115.8844,河北,3584A,容城县环境保护局(145),B
雄安新区,安新县,38.9405,115.923,河北,3586A,安新县民政局(145),B
雄安新区,安新县,38.9338,115.9324,河北,3587A,安新县电力局(145),B
雄安新区,雄县,38.9816,116.0901,河北,3588A,雄县环境保护局(145),B
雄安新区,雄县,39.0046,116.1105,河北,3589A,雄县国土资源局(145),B
郑州,航空港区,34.55894,113.83738,河南,3590A,北区建设指挥部(145),B
郑州,上街区,34.80323,113.30949,河南,3591A,上街区政府(145),B
洛阳,吉利区,34.8993,112.5736,河南,3593A,吉利监测站(145),B
鹤壁,鹤山区,35.9603,114.1572,河南,3596A,南山宾馆(145),B
许昌,建安区,34.1251,113.8134,河南,3597A,建安区兴业大厦(145),B
重庆,合川区,29.9851,106.2649,重庆,3599A,书院路(新增191231),B
重庆,璧山区,29.5559,106.2339,重庆,3600A,虎峰(新增191224),B
重庆,铜梁区,29.8342,106.0499,重庆,3601A,龙门街(新增191226),B
西安,高陵区,34.5236,109.09,陕西,3605A,无线电监控中心(新增200102),B
,空港新城,34.46,108.7108,,3606A,北杜(新增200102),B
,泾河新城,34.4978,108.8558,,3608A,崇文塔(新增200102),B
重庆,荣昌区,29.4105,105.5933,重庆,3610A,昌元(新增191226),B
克拉玛依,白碱滩区,45.6899,85.1045,新疆,3612A,白碱滩区新站(并行145),B
昌吉州,昌吉市,44.0142,87.3095,新疆,3613A,亚心广场(并行145),B
和田地区,和田市,37.0877,79.924,新疆,3614A,地区环保局,B
巴中,巴州区,31.8344,106.7616,四川,3616A,市中心医院(并行145),B
广元,利州区,32.4166,105.8047,四川,3617A,经开区(并行145),B
太原,晋源区,37.782,112.4701,山西,3618A,金胜(并行145),B
阳泉,开发区,37.8571,113.617,山西,3619A,龙柱(并行145),B
晋城,城区,35.4828,112.8271,山西,3620A,泽州一中(并行145),B
乌海,海勃湾区,39.6778,106.8288,内蒙古,3621A,聚英学校(并行145),B
深圳,宝安区,22.5861,113.8953,广东,3623A,西乡(并行145),B
佛山,顺德区,22.7642,113.2544,广东,3625A,容桂街道办(并行145),B
东莞,市区,23.0202,113.7533,广东,3626A,南城元岭(并行145),B
东莞,市区,23.0457,113.7875,广东,3627A,东城主山(并行145),B
云浮,云城区,22.9374,112.0336,广东,3628A,文笔(并行145),B
西宁,城东区,36.5786,101.8305,青海,3629A,世纪职校(并行145),B
西宁,城西区,36.6397,101.7413,青海,3630A,师大城西校区(并行145),B
洛阳,涧西区,34.662,112.3677,河南,3635A,河南科技大学西苑校区(并行145),B
洛阳,西工区,34.6781,112.4388,河南,3636A,英才小学(并行145),B
七台河,桃山区,45.7761,131.0176,黑龙江,3637A,人民广场(启用200627),B
自贡,自流井区,29.3338,104.7636,四川,3638A,轻化工大学(并行145),B
德阳,旌阳区,31.1244,104.4019,四川,3639A,市教育局(并行145),B
青岛,市北区,36.0736,120.3503,山东,3642A,市北区南部(并行145),B
青岛,李沧区,36.1805,120.3948,山东,3643A,李沧区北部(并行145),B
淄博,高新区,36.8406,118.0253,山东,3645A,东风化工厂(并行145),B
东营,东营区,37.4623,118.4978,山东,3646A,胜利站(并行145),B
菏泽,牡丹区,35.2706,115.4702,山东,3647A,菏泽医专(并行145),B
宜昌,高新区,30.7273,111.3119,湖北,3653A,云深路(并行145),B
鄂州,鄂城区,30.4089,114.8094,湖北,3654A,精准医疗中心,B
咸宁,咸安区,29.8683,114.3375,湖北,3655A,长江产业园(并行145),B
杭州,下城区,30.2864,120.1556,浙江,3656A,消防大队(并行145),B
绍兴,越城区,30.0764,120.6153,浙江,3658A,袍江中学(并行145),B
金华,婺城区,29.1131,119.6557,浙江,3659A,气象局,B
齐齐哈尔,富拉尔基区,47.2075,123.6333,黑龙江,3662A,富区青少年活动中心(启用191231),B
临汾,尧都区,36.0414,111.5036,山西,3668A,城南(启用191230),B
安阳,城乡一体化示范区,36.0637,114.4705,河南,3669A,左辅环卫站(145),B
运城,盐湖区,35.0439,111.0522,山西,3670A,禹都公园(并行145),B
北京,丰台区,39.8204,116.1541,北京,3672A,丰台云岗(145),B
北京,通州区,39.9081,116.6804,北京,3673A,通州东关(145),B
北京,大兴区,39.7733,116.4672,北京,3675A,大兴旧宫(145),B
德宏州,芒市,24.4368,98.5881,云南,3677A,芒市人民政府综合楼(启用200103),B
济南,天桥区,36.6819,116.9814,山东,3682A,济南四建(启用200106),B
包头,昆都仑区,40.6576,109.8331,内蒙古,3683A,昆区政府(启用200107),B
新乡,凤泉区,35.372,113.9003,河南,3689A,行政服务中心(145),B
南昌,青山湖区,28.7031,115.9721,江西,3690A,外国语学校(启用200108),B
唐山,路南区,39.6202,118.1436,河北,3693A,路南电大(启用200110),B
北京,延庆区,40.4563,115.986,北京,3694A,延庆石河营(145),B
北京,怀柔区,40.3053,116.6151,北京,3695A,怀柔新城(145),B
北京,丰台区,39.8768,116.2545,北京,3696A,丰台小屯(145),B
北京,密云区,40.3844,116.84,北京,3697A,密云镇(145),B
呼和浩特,新城区,40.8389,111.6518,内蒙古,3699A,海东办(启用200113),B
雅安,雨城区,29.9956,103.0456,四川,3700A,康养中心(对照点)(启用200229),B
宿州,埇桥区,33.6252,116.9648,安徽,3701A,皖北煤电集团(启用200114),B
鸡西,鸡冠区,45.3073,131.0207,黑龙江,3707A,欧美日汽修厂(启用200301),B
通辽,科尔沁区,43.6189,122.2922,内蒙古,3708A,东方明珠社区(启用200221),B
鸡西,鸡冠区,45.3106,130.9967,黑龙江,3709A,市政设施管理处(启用200301),B
宁波,江北区,29.8975,121.5594,浙江,3710A,白沙活动中心(启用200303),B
四平,铁西区,43.1666,124.3419,吉林,3713A,世纪城(启用200414),B
蚌埠,禹会区,32.9314,117.3092,安徽,3715A,蚌埠田家炳中学(启用200430),B
日喀则,桑珠孜区,29.2426,88.8781,西藏,3726A,林业技术推广中心,B
宜宾,翠屏区,28.8071,104.68,四川,3728A,白酒学院,B
东营,东营区,37.26,118.35,山东,3734A,理想之城(启用20201117),B
临沂,罗庄区,35.03,118.392,山东,3860A,皇山花园小区(启用211119),B
潍坊,寒亭区,36.7699,119.2041,山东,3861A,寒亭区实验一小,B
营口,站前区,40.66302,122.2469,辽宁,3866A,三高中,B
海东,平安区,36.5056,102.0738,青海,3867A,平安区公安北苑,B
